
 PEER Ground Motion Database, Time Series Search Report -- NGA-West2 -- 2022-05-15


 -- Summary of PEER Ground Motion Database Search Criteria --
Magnitude Min:, 6.0
Magnitude Max:, 7.5
Rrup Min (km):, 0.0
Rrup Max (km):, 50.0
Rjb Min (km):, -1.0e-06
Rjb Max (km):, 99999
Vs30 Min (m/sec):, 330.0
Vs30 Max (m/sec):, 1030.0
D9-95 Min (sec):, -1.0e-06
D9-95 Max (sec):, 99999
Scale Factor Min:, 0.25
Scale Factor Max:, 5.5
Period Array:, 0.010, 0.013, 0.016, 0.020, 0.026, 0.033, 0.042, 0.053, 0.067, 0.085, 0.108, 0.137, 0.174, 0.221, 0.281, 0.356, 0.452, 0.574, 0.728, 0.924, 1.172, 1.487, 1.887, 2.395, 3.039, 3.857, 4.894, 6.210, 7.880, 10.0
Weight Array:, 1, 1, 1, 1, 1, 1, 1, 1, 1, 1, 1, 1, 1, 1, 1, 1, 1, 1, 1, 1, 1, 1, 1, 1, 1, 1, 1, 1, 1, 1
Record Sequence Number:, 
Earthquake Name:, 
Station Name:, 
User-Defined Maximum Number of Records:, 14
Pulse:, 1
Damping Ratio:, 0.05
Scaling Method:, Minimize MSE
Suite Average:, Arithmetic
Single-Period-Scaling Period (sec):, 
Component:, RotD50
Fault Type:, Strike Slip (SS)


 -- Summary of Metadata of Selected Records --
Result ID, Spectral Ordinate, Record Sequence Number, Mean Squared Error, Scale Factor, Tp-Pulse Period (sec), 5-75% Duration (sec), 5-95% Duration (sec), Arias Intensity (m/sec), Earthquake Name, Year, Station Name, Magnitude, Mechanism, Rjb (km), Rrup (km), Vs30 (m/sec), Lowest Useable Frequency (Hz), Initial-search Scale Factor, Horizontal-1 Acc. Filename, Horizontal-2 Acc. Filename, Vertical Acc. Filename
1, RotD50, 164, 0.0522, 0.9914, -, 19.7, 36.4, 1.3, "Imperial Valley-06", 1979, "Cerro Prieto", 6.53, strike slip, 15.19, 15.19, 471.53, 0.1125, 1.0146, RSN164_IMPVALL.H_H-CPE147.AT2, RSN164_IMPVALL.H_H-CPE237.AT2 , RSN164_IMPVALL.H_H-CPEDWN.AT2  
2, RotD50, 472, 0.0673, 2.7279, -, 14.0, 21.8, 0.1, "Morgan Hill", 1984, "San Justo Dam (R Abut)", 6.19, strike slip, 31.88, 31.88, 543.63, 0.125, 2.7915, RSN472_MORGAN_SJR270.AT2, RSN472_MORGAN_SJR360.AT2 , RSN472_MORGAN_SJR-UP.AT2  
3, RotD50, 850, 0.0666, 1.1654, -, 22.6, 31.7, 0.7, "Landers", 1992, "Desert Hot Springs", 7.28, strike slip, 21.78, 21.78, 359.0, 0.07, 1.1926, RSN850_LANDERS_DSP000.AT2, RSN850_LANDERS_DSP090.AT2 , RSN850_LANDERS_DSP-UP.AT2  
4, RotD50, 1633, 0.0543, 0.3501, -, 10.8, 29.1, 7.5, "Manjil_ Iran", 1990, "Abbar", 7.37, strike slip, 12.55, 12.55, 723.95, 0.13, 0.3583, RSN1633_MANJIL_ABBAR--L.AT2, RSN1633_MANJIL_ABBAR--T.AT2 , RSN1633_MANJIL_ABBAR--V.AT2  
5, RotD50, 1787, 0.0666, 0.6297, -, 7.6, 11.7, 1.9, "Hector Mine", 1999, "Hector", 7.13, strike slip, 10.35, 11.66, 726.0, 0.0375, 0.6444, RSN1787_HECTOR_HEC000.AT2, RSN1787_HECTOR_HEC090.AT2 , RSN1787_HECTOR_HECVER.AT2  
6, RotD50, 2714, 0.0749, 1.5302, -, 6.8, 18.5, 0.2, "Chi-Chi_ Taiwan-04", 1999, "CHY046", 6.2, strike slip, 38.11, 38.14, 442.15, 0.03, 1.5659, RSN2714_CHICHI.04_CHY046N.AT2, RSN2714_CHICHI.04_CHY046E.AT2 , RSN2714_CHICHI.04_CHY046V.AT2  
7, RotD50, 2743, 0.0763, 2.3336, -, 7.6, 14.2, 0.1, "Chi-Chi_ Taiwan-04", 1999, "CHY087", 6.2, strike slip, 38.32, 38.35, 505.2, 0.03, 2.388, RSN2743_CHICHI.04_CHY087N.AT2, RSN2743_CHICHI.04_CHY087E.AT2 , RSN2743_CHICHI.04_CHY087V.AT2  
8, RotD50, 3752, 0.042, 1.704, -, 18.3, 27.3, 0.3, "Landers", 1992, "Forest Falls Post Office", 7.28, strike slip, 45.34, 45.34, 436.14, 0.125, 1.7437, RSN3752_LANDERS_FFP210.AT2, RSN3752_LANDERS_FFP300.AT2 , RSN3752_LANDERS_FFP-UP.AT2  
9, RotD50, 3759, 0.0559, 1.6494, -, 23.2, 33.4, 0.6, "Landers", 1992, "Whitewater Trout Farm", 7.28, strike slip, 27.05, 27.05, 425.02, 0.375, 1.6879, RSN3759_LANDERS_WWT180.AT2, RSN3759_LANDERS_WWT270.AT2 , RSN3759_LANDERS_WWT-UP.AT2  
10, RotD50, 3854, 0.0616, 2.2216, -, 6.7, 17.1, 0.1, "Chi-Chi_ Taiwan-04", 1999, "CHY010", 6.2, strike slip, 31.6, 31.63, 538.69, 0.05, 2.2734, RSN3854_CHICHI.04_CHY010N.AT2, RSN3854_CHICHI.04_CHY010W.AT2 , RSN3854_CHICHI.04_CHY010V.AT2  
11, RotD50, 3943, 0.0274, 1.0132, -, 3.7, 9.9, 0.4, "Tottori_ Japan", 2000, "SMN015", 6.61, strike slip, 9.1, 9.12, 616.55, 0.075, 1.0368, RSN3943_TOTTORI_SMN015NS.AT2, RSN3943_TOTTORI_SMN015EW.AT2 , RSN3943_TOTTORI_SMN015UD.AT2  
12, RotD50, 4054, 0.0651, 1.939, -, 9.5, 22.1, 0.2, "Bam_ Iran", 2003, "Mohammad Abad-e-Madkoon", 6.6, strike slip, 46.2, 46.22, 574.88, 0.0375, 1.9842, RSN4054_BAM_MOH-L.AT2, RSN4054_BAM_MOH-T.AT2 , RSN4054_BAM_MOH-V.AT2  
13, RotD50, 6893, 0.0537, 0.4463, -, 15.0, 21.3, 2.8, "Darfield_ New Zealand", 2010, "DFHS", 7.0, strike slip, 11.86, 11.86, 344.02, 0.1625, 0.4567, RSN6893_DARFIELD_DFHSS17E.AT2, RSN6893_DARFIELD_DFHSS73W.AT2 , RSN6893_DARFIELD_DFHSUP.AT2  
14, RotD50, 6948, 0.0297, 1.3997, -, 17.8, 23.0, 0.5, "Darfield_ New Zealand", 2010, "OXZ", 7.0, strike slip, 30.63, 30.63, 481.62, 0.1, 1.4323, RSN6948_DARFIELD_OXZE.AT2, RSN6948_DARFIELD_OXZN.AT2 , RSN6948_DARFIELD_OXZUP.AT2  

 These records were obtained from the NGA-West2 On-Line Ground-Motion Database Tool
 These records are UNSCALED, AS RECORDED
 Filename Extension: 
   ,AT2 = Acceleration
   ,VT2 = Velocity
   ,DT2 = Displacement
 The users of the NGA-West2 databases, flatfiles, models and reports are requested to acknowledge the Pacific Earthquake Engineering Research Center (PEER) in their work and publications.

 -- Scaled Spectra used in Search & Scaling --
Period (sec),Target pSa (g),Arithmetic Mean pSa (g),Arithmetic Mean + Sigma pSa (g),Arithmetic Mean - Sigma pSa (g),RSN-164 RotD50 pSa (g),RSN-472 RotD50 pSa (g),RSN-850 RotD50 pSa (g),RSN-1633 RotD50 pSa (g),RSN-1787 RotD50 pSa (g),RSN-2714 RotD50 pSa (g),RSN-2743 RotD50 pSa (g),RSN-3752 RotD50 pSa (g),RSN-3759 RotD50 pSa (g),RSN-3854 RotD50 pSa (g),RSN-3943 RotD50 pSa (g),RSN-4054 RotD50 pSa (g),RSN-6893 RotD50 pSa (g),RSN-6948 RotD50 pSa (g)
0.01,0.22098,0.19030417,0.20717241,0.17480936,0.17126667,0.18350284,0.18108505,0.18498225,0.19872216,0.17297218,0.1747099,0.18418876,0.22265417,0.1818963,0.225032,0.18827872,0.20261757,0.19234984
0.02,0.22478,0.19199123,0.20925252,0.17615382,0.17159216,0.18426217,0.18281598,0.18587043,0.19720171,0.17502337,0.17523017,0.18817619,0.22597717,0.18280013,0.22603382,0.19338682,0.20667977,0.19282727
0.022,0.22702114,0.19340914,0.21060806,0.17761473,0.17151909,0.18454805,0.18306362,0.19294939,0.19798577,0.17493798,0.17576101,0.18840929,0.22476587,0.18464885,0.22677495,0.196663,0.20897853,0.19672252
0.025,0.23006215,0.19719929,0.2164712,0.17964311,0.17192924,0.18487731,0.18448478,0.20974401,0.19984535,0.176481,0.17623764,0.19074473,0.23325539,0.18961599,0.22758002,0.19852735,0.21762811,0.19983914
0.029,0.23364405,0.20140469,0.22290537,0.1819779,0.17466581,0.18532542,0.18274757,0.21526748,0.20136819,0.17834183,0.17765216,0.19428897,0.23727872,0.19452372,0.23268548,0.2056652,0.22901106,0.2108441
0.03,0.23447,0.20298879,0.2258562,0.18243665,0.17602626,0.18569924,0.18225776,0.21948836,0.2011099,0.17936872,0.17776132,0.19584638,0.23985934,0.19755883,0.23758294,0.20642025,0.23405827,0.2088055
0.032,0.23816272,0.20836584,0.23517465,0.1846131,0.18029895,0.18523706,0.18245623,0.21876822,0.20137933,0.18100018,0.17991434,0.20010389,0.25056051,0.21837797,0.25789122,0.2130334,0.23586662,0.21223382
0.035,0.24338672,0.20756489,0.2381874,0.18087935,0.18404014,0.18611571,0.18284359,0.19789142,0.20346446,0.18387903,0.17942061,0.19300401,0.26272254,0.20132055,0.26705919,0.2135548,0.24574976,0.20484264
0.036,0.24505251,0.20846557,0.2398307,0.18120239,0.18273948,0.1858801,0.1830459,0.19852337,0.20368767,0.18610496,0.18047717,0.19468974,0.2640046,0.20649266,0.27120448,0.21422725,0.24625757,0.20118309
0.04,0.25138436,0.21390168,0.24745868,0.18489523,0.1884329,0.18769161,0.18042289,0.19698055,0.20725376,0.18430839,0.18167562,0.21923814,0.26366665,0.2181198,0.28204205,0.23970708,0.24399733,0.20108679
0.042,0.25437167,0.21453956,0.24655697,0.18667987,0.18913206,0.18833089,0.17999963,0.20312035,0.2089553,0.18899926,0.18423016,0.22340176,0.26387084,0.21388384,0.28043547,0.23131159,0.24511823,0.20276443
0.044,0.25725304,0.21653448,0.24863218,0.18858051,0.19871133,0.19036918,0.18299906,0.20864333,0.20852354,0.19086529,0.18641638,0.21276344,0.26321142,0.20286963,0.27959139,0.24998708,0.25031219,0.20621949
0.045,0.25865664,0.21669865,0.24920365,0.18843345,0.19554289,0.1916329,0.18393624,0.20984043,0.20997466,0.19040349,0.18688631,0.20460251,0.26463269,0.20522607,0.28267366,0.24787842,0.24965183,0.21089897
0.046,0.26003679,0.21916937,0.25300862,0.18985603,0.20076648,0.19317107,0.18409194,0.21543958,0.21427329,0.191558,0.18804663,0.19959526,0.26692945,0.20941083,0.29109381,0.24656009,0.25299669,0.214438
0.048,0.26273028,0.22567208,0.25931208,0.19639613,0.21371563,0.19424932,0.18454934,0.23635888,0.22626621,0.19758026,0.19070559,0.20665339,0.27103475,0.2107246,0.29091732,0.2493922,0.26247654,0.22478512
0.05,0.26534,0.23387467,0.26928303,0.20312219,0.22157099,0.19233642,0.18780142,0.2526158,0.23668315,0.19533719,0.19855158,0.21899993,0.27717853,0.22535129,0.29166058,0.25474442,0.27999355,0.24142049
0.055,0.27949747,0.24956049,0.29779385,0.20913943,0.23255571,0.20538412,0.193897,0.31684262,0.22900279,0.19311402,0.19876788,0.22458362,0.26790209,0.26860156,0.3220654,0.26734832,0.3141495,0.25963216
0.06,0.2930808,0.26038124,0.31587998,0.21463339,0.25319515,0.20297617,0.19176239,0.35052951,0.22098461,0.20173633,0.22105792,0.22558811,0.29649969,0.25704742,0.31834625,0.28743637,0.33508907,0.28308835
0.065,0.30615847,0.27397143,0.33566446,0.2236172,0.29394826,0.23142859,0.20721471,0.39961445,0.24268326,0.21954115,0.20597246,0.23604597,0.30301985,0.25165335,0.28919493,0.29555342,0.3659128,0.29381687
0.067,0.31126078,0.28091148,0.34062611,0.23166533,0.29230892,0.23662471,0.21104842,0.40263749,0.24965853,0.22810777,0.21033224,0.24369589,0.3143783,0.27690038,0.30028681,0.2966156,0.36242223,0.30774348
0.07,0.31878617,0.28693998,0.34569926,0.23816814,0.29113605,0.24701758,0.20804678,0.39208573,0.25795476,0.21928562,0.22604552,0.25791695,0.33754152,0.29216416,0.30779024,0.28864999,0.37026574,0.32125901
0.075,0.33101,0.29869142,0.36765208,0.24266574,0.36463445,0.23450572,0.2292524,0.40737843,0.23247915,0.23825795,0.23927621,0.29885964,0.40126084,0.27586311,0.30274668,0.27264043,0.37135616,0.3131687
0.08,0.34301922,0.31249255,0.39313162,0.24839415,0.35793025,0.24730374,0.2550885,0.50505362,0.23262284,0.25333893,0.2644365,0.27906527,0.39559423,0.34238828,0.32235587,0.27332626,0.35778214,0.2886093
0.085,0.35469672,0.3350404,0.42591747,0.26355358,0.36074524,0.24707749,0.27422967,0.56459089,0.26389065,0.26657805,0.30446066,0.32131285,0.44257433,0.3351134,0.32387927,0.29367743,0.37075833,0.32167737
0.09,0.36607043,0.35211635,0.43683226,0.28382959,0.43926446,0.257874,0.28196923,0.50801155,0.28221677,0.26310213,0.34694137,0.35527255,0.45478435,0.36547057,0.34851348,0.26700725,0.41595826,0.3432429
0.095,0.37716449,0.35212098,0.4235874,0.29271217,0.44343712,0.27861945,0.31120553,0.4367035,0.27601057,0.26235388,0.36596298,0.35445516,0.45944665,0.4068076,0.36740464,0.26809774,0.37006869,0.3291202
0.1,0.388,0.35884178,0.42990928,0.2995223,0.4521123,0.29528489,0.31596804,0.41120318,0.26565836,0.26838104,0.36661801,0.38958122,0.48420812,0.40790774,0.37266887,0.28606201,0.35640876,0.35172231
0.11,0.41032949,0.38946517,0.47327372,0.32049767,0.44453534,0.28352582,0.33272055,0.49297967,0.28891926,0.31701511,0.34643732,0.41004302,0.5647074,0.35443007,0.43124609,0.38805735,0.37685597,0.42103946
0.12,0.43183498,0.40244,0.48794563,0.33191803,0.45652518,0.31315933,0.31877821,0.5351608,0.32689933,0.33835736,0.39973902,0.41918135,0.58441237,0.34368726,0.40362384,0.433976,0.37816624,0.38249368
0.13,0.45261205,0.41602134,0.50867502,0.34024427,0.44014714,0.32337442,0.31280942,0.57615372,0.33987943,0.38784435,0.39746052,0.43185896,0.59200793,0.34142433,0.38766247,0.50087134,0.3982522,0.39455259
0.133,0.45871518,0.42682034,0.52968643,0.34393103,0.43597151,0.31800623,0.32043606,0.61007584,0.33353691,0.40246215,0.42751569,0.44352306,0.59363636,0.36297637,0.39928818,0.55199408,0.41221722,0.36384504
0.14,0.4727388,0.44035874,0.55658253,0.34840442,0.42148463,0.3226278,0.32372589,0.59543011,0.30663978,0.40776462,0.48202944,0.51626091,0.58729499,0.39602369,0.4153754,0.63114507,0.41615848,0.3430615
0.15,0.49228,0.4504612,0.52604666,0.3857363,0.46135517,0.3667851,0.36040574,0.57847272,0.36905885,0.37489214,0.48258273,0.51426711,0.49239828,0.44215338,0.4572266,0.56758287,0.4496884,0.38958771
0.16,0.49851982,0.45729233,0.51808829,0.40363058,0.43816506,0.37869884,0.39445023,0.52031166,0.38664574,0.36419492,0.48636801,0.43252214,0.48854302,0.50491071,0.54336782,0.51370908,0.5030655,0.44713988
0.17,0.50445326,0.46136513,0.53385749,0.39871649,0.47253332,0.39484244,0.42259643,0.55712869,0.39229992,0.34658413,0.45410459,0.39030455,0.49742361,0.44394022,0.55846192,0.57373707,0.50008863,0.45506629
0.18,0.51011211,0.47591655,0.56132313,0.40350478,0.46804528,0.38629572,0.45510904,0.59308869,0.38219643,0.34531547,0.42752573,0.44744216,0.4732927,0.4957568,0.57269959,0.61122746,0.5555973,0.44923937
0.19,0.51552334,0.49056067,0.58823093,0.40910765,0.42871478,0.42871208,0.5171022,0.55002848,0.38688627,0.35700591,0.42220776,0.53573373,0.46225291,0.46558158,0.64514275,0.64708929,0.59209012,0.4293015
0.2,0.52071,0.49551239,0.59216291,0.41463679,0.43399944,0.46811195,0.54345712,0.5512188,0.42924904,0.34899781,0.43803308,0.50252684,0.51670535,0.52604176,0.68724856,0.58641852,0.55234104,0.35282413
0.22,0.50787254,0.48511446,0.59622135,0.39471254,0.45387359,0.51911622,0.43282697,0.45762532,0.51277998,0.36564491,0.50264394,0.45183684,0.64671372,0.45476035,0.75243104,0.44818383,0.43203968,0.36112607
0.24,0.49642941,0.4697816,0.55497996,0.39766256,0.44421283,0.4759958,0.46143011,0.41801876,0.43193568,0.4419965,0.43965864,0.51216766,0.61470141,0.46371943,0.66128619,0.38292074,0.46964283,0.35925584
0.25,0.49115,0.47009512,0.54239921,0.40742946,0.46062943,0.45423195,0.48719967,0.4082078,0.41166536,0.48780896,0.44771341,0.49059028,0.55120179,0.489399,0.65110951,0.41961982,0.46076844,0.36118625
0.26,0.48108973,0.48253438,0.56012134,0.41569463,0.45730604,0.47727081,0.47283616,0.42440128,0.43193134,0.54203563,0.4509384,0.46849489,0.62218382,0.51931206,0.63454195,0.45462306,0.43589386,0.36371208
0.28,0.46263986,0.48448991,0.58015088,0.40460246,0.49557005,0.57978429,0.44664893,0.42359782,0.44603677,0.43644369,0.5799529,0.41774321,0.54502321,0.49133446,0.69848208,0.46092385,0.42177201,0.33954542
0.29,0.45415208,0.46773668,0.56256714,0.38889155,0.55084137,0.53758125,0.44388654,0.39787029,0.44665497,0.37338523,0.57852732,0.37347439,0.53514937,0.45253318,0.65519076,0.44240425,0.40077303,0.36004161
0.3,0.4461,0.45563038,0.54995337,0.37748481,0.60141487,0.50955937,0.44057119,0.39332646,0.47050757,0.3445383,0.54234584,0.34706391,0.5221864,0.42545489,0.60061566,0.45047127,0.37146184,0.35930777
0.32,0.42904081,0.43884643,0.51049006,0.37725747,0.53361694,0.44844748,0.469401,0.39232484,0.44554796,0.40173104,0.54179955,0.2810526,0.47788292,0.38268893,0.51221913,0.44787456,0.41098541,0.39827764
0.34,0.41361084,0.44422422,0.5202119,0.37933612,0.49508385,0.45280472,0.56322491,0.43811962,0.41618992,0.4644166,0.590029,0.29809541,0.39891608,0.43309011,0.43184406,0.4560874,0.39194591,0.38929155
0.35,0.40643038,0.43632041,0.51881119,0.36694564,0.46905318,0.45986775,0.5912653,0.44086749,0.39191532,0.44522009,0.57581338,0.29619805,0.37817052,0.43378414,0.40343529,0.47083466,0.36626766,0.38579296
0.36,0.39957167,0.43081444,0.50743664,0.36576208,0.43199832,0.42473456,0.58103582,0.42468451,0.41121565,0.43894153,0.55872094,0.30949591,0.39141173,0.45979851,0.35836828,0.48162947,0.37828545,0.38108143
0.38,0.38673059,0.41445536,0.50114634,0.34276064,0.42707762,0.32258825,0.51180351,0.37070249,0.39500589,0.45667581,0.54487006,0.29727308,0.33070056,0.47501475,0.33080348,0.53380508,0.37407047,0.43198395
0.4,0.37493,0.39619662,0.47713485,0.32898824,0.45963919,0.32415051,0.40675733,0.37013044,0.38318625,0.4438509,0.52168701,0.27915899,0.30636099,0.37640999,0.34850396,0.54493359,0.36720692,0.41477654
0.42,0.36503233,0.37205007,0.44109745,0.31381106,0.47630167,0.33316561,0.3555352,0.3187607,0.40278196,0.42188542,0.47251876,0.2834378,0.31635293,0.30962534,0.31990046,0.4693298,0.36411204,0.36499332
0.44,0.35583863,0.36462883,0.43579135,0.30508679,0.45451157,0.32838936,0.35632171,0.29155292,0.48943023,0.41509012,0.46856686,0.27667053,0.33384097,0.28816304,0.34351055,0.35852888,0.34937589,0.35085103
0.45,0.35148065,0.35774171,0.42857103,0.29861825,0.41576007,0.35373928,0.34074551,0.28271104,0.51230968,0.41719853,0.43324063,0.28454912,0.31555167,0.28123518,0.36367993,0.32051825,0.36835572,0.31878931
0.46,0.34727009,0.35497869,0.43970351,0.28657919,0.40863501,0.3596716,0.31896979,0.26575558,0.54016907,0.45741641,0.39295231,0.29608457,0.29851655,0.26658812,0.37668295,0.29556583,0.39001679,0.30267714
0.48,0.33925969,0.35643765,0.46327364,0.27423921,0.39732648,0.35143886,0.33808871,0.24268497,0.60379193,0.47610842,0.35388724,0.28860607,0.29726978,0.24842913,0.38810056,0.26378967,0.40207808,0.33852717
0.5,0.33175,0.35480164,0.46402309,0.27128867,0.37351247,0.32825351,0.35088282,0.25546362,0.64213985,0.40488746,0.34473032,0.31558057,0.31107624,0.24136753,0.37829814,0.25940152,0.4226494,0.33897954
0.55,0.31080381,0.34574127,0.4361712,0.27405987,0.38025592,0.31906874,0.31172621,0.24049388,0.50182626,0.32531655,0.34676309,0.39117527,0.42971329,0.1777404,0.34256131,0.26388487,0.39133692,0.41851503
0.6,0.29283838,0.30085384,0.37388975,0.24208482,0.39528214,0.29955703,0.31571037,0.2123704,0.32292409,0.26555682,0.27255404,0.37260725,0.37016674,0.18898285,0.27055291,0.24625082,0.26567657,0.41376179
0.65,0.27723026,0.28782768,0.36317514,0.22811245,0.39020588,0.33566325,0.34760883,0.22538467,0.25382525,0.27050001,0.2631136,0.36896709,0.36347752,0.18274819,0.21797335,0.23805117,0.21643977,0.3556289
0.667,0.27237551,0.2845188,0.36621876,0.22104533,0.35778927,0.36328741,0.34760475,0.22675171,0.24649341,0.2901603,0.27740879,0.34619131,0.39148084,0.17951027,0.20201825,0.21112329,0.19107925,0.35236434
0.7,0.26352206,0.27140382,0.35676833,0.20646461,0.31089985,0.35479524,0.34011761,0.23587373,0.23233842,0.27763592,0.27569175,0.32397,0.41580985,0.17774371,0.19807834,0.16262224,0.17541491,0.31866195
0.75,0.25137,0.25596035,0.33735903,0.1942017,0.32813182,0.36531913,0.27723131,0.22450597,0.20184478,0.25493443,0.20032248,0.28760687,0.3749755,0.17222677,0.1899594,0.17754356,0.18545113,0.34339168
0.8,0.24606862,0.24819416,0.33661173,0.18300117,0.3231788,0.37548131,0.27289673,0.20255905,0.2083507,0.22930833,0.15639535,0.27534485,0.37826915,0.17864777,0.1787885,0.17203406,0.18520977,0.33825381
0.85,0.23621338,0.23962178,0.3325226,0.17267577,0.29636697,0.40222627,0.33986752,0.17270093,0.19743544,0.25081936,0.14744043,0.25749573,0.32611627,0.18867067,0.18060987,0.14491959,0.16008941,0.2899464
0.9,0.22423337,0.23320427,0.32855038,0.16552783,0.23524082,0.41393406,0.34548728,0.15520486,0.20575107,0.28335781,0.13632995,0.24081297,0.27410623,0.19228716,0.18107776,0.13069269,0.16893264,0.30164447
0.95,0.21346096,0.22502943,0.30390549,0.16662497,0.19766744,0.35619683,0.31757613,0.16707969,0.19850795,0.29284359,0.13898522,0.25271017,0.23666763,0.19026705,0.20019049,0.11834639,0.18352638,0.29984703
1.0,0.20372,0.21831014,0.29200646,0.16321323,0.21033632,0.32438756,0.31723805,0.13983864,0.22689594,0.29439472,0.15616762,0.23364595,0.19540164,0.18566956,0.21456717,0.10469945,0.17869719,0.2744022
1.1,0.18010315,0.20557011,0.27545996,0.15341275,0.28305237,0.29397687,0.28321,0.12217873,0.28718707,0.23256743,0.15108469,0.22331605,0.16098411,0.15905547,0.19082242,0.11682397,0.17565726,0.19806507
1.2,0.16094161,0.17491058,0.24285498,0.12597522,0.2411127,0.25359025,0.20974367,0.10142649,0.29976998,0.1759332,0.11795668,0.2066936,0.11301801,0.13838025,0.16585052,0.1517747,0.12249425,0.15100377
1.3,0.14512024,0.15422253,0.21524292,0.11050114,0.16274249,0.19130859,0.21403468,0.08585817,0.28117581,0.15305773,0.10548351,0.15305509,0.09638379,0.13776653,0.16154516,0.17083983,0.08480076,0.16106326
