
 PEER Ground Motion Database, Time Series Search Report -- NGA-West2 -- 2022-05-16


 -- Summary of PEER Ground Motion Database Search Criteria --
Magnitude Min:, 6.0
Magnitude Max:, 7.5
Rrup Min (km):, 0.0
Rrup Max (km):, 50.0
Rjb Min (km):, -1.0e-06
Rjb Max (km):, 99999
Vs30 Min (m/sec):, 330.0
Vs30 Max (m/sec):, 1030.0
D9-95 Min (sec):, -1.0e-06
D9-95 Max (sec):, 99999
Scale Factor Min:, 0.25
Scale Factor Max:, 5.5
Period Array:, 0.010, 0.013, 0.016, 0.020, 0.026, 0.033, 0.042, 0.053, 0.067, 0.085, 0.108, 0.137, 0.174, 0.221, 0.281, 0.356, 0.452, 0.574, 0.728, 0.924, 1.172, 1.487, 1.887, 2.395, 3.039, 3.857, 4.894, 6.210, 7.880, 10.000
Weight Array:, 1, 1, 1, 1, 1, 1, 1, 1, 1, 1, 1, 1, 1, 1, 1, 1, 1, 1, 1, 1, 1, 1, 1, 1, 1, 1, 1, 1, 1, 1
Record Sequence Number:, 164,848,850,864,1111,1787,1794,2709,2734,3753,3756,3943,6948,6971
Earthquake Name:, 
Station Name:, 
User-Defined Maximum Number of Records:, 14
Pulse:, 1
Damping Ratio:, 0.05
Scaling Method:, Minimize MSE
Suite Average:, Arithmetic
Single-Period-Scaling Period (sec):, 
Component:, RotD50
Fault Type:, All Types


 -- Summary of Metadata of Selected Records --
Result ID, Spectral Ordinate, Record Sequence Number, Mean Squared Error, Scale Factor, Tp-Pulse Period (sec), 5-75% Duration (sec), 5-95% Duration (sec), Arias Intensity (m/sec), Earthquake Name, Year, Station Name, Magnitude, Mechanism, Rjb (km), Rrup (km), Vs30 (m/sec), Lowest Useable Frequency (Hz), Initial-search Scale Factor, Horizontal-1 Acc. Filename, Horizontal-2 Acc. Filename, Vertical Acc. Filename
1, RotD50, 164, 0.0421, 3.4246, -, 19.7, 36.4, 1.3, "Imperial Valley-06", 1979, "Cerro Prieto", 6.53, strike slip, 15.19, 15.19, 471.53, 0.1125, 3.5184, RSN164_IMPVALL.H_H-CPE147.AT2, RSN164_IMPVALL.H_H-CPE237.AT2 , RSN164_IMPVALL.H_H-CPEDWN.AT2  
2, RotD50, 848, 0.0919, 1.999, -, 6.1, 10.6, 2.2, "Landers", 1992, "Coolwater", 7.28, strike slip, 19.74, 19.74, 352.98, 0.1, 2.0538, RSN848_LANDERS_CLW-LN.AT2, RSN848_LANDERS_CLW-TR.AT2 , RSN848_LANDERS_CLW-UP.AT2  
3, RotD50, 850, 0.0404, 4.0253, -, 22.6, 31.7, 0.7, "Landers", 1992, "Desert Hot Springs", 7.28, strike slip, 21.78, 21.78, 359.0, 0.07, 4.1357, RSN850_LANDERS_DSP000.AT2, RSN850_LANDERS_DSP090.AT2 , RSN850_LANDERS_DSP-UP.AT2  
4, RotD50, 864, 0.0974, 2.3601, -, 21.7, 27.1, 2.3, "Landers", 1992, "Joshua Tree", 7.28, strike slip, 11.03, 11.03, 379.32, 0.07, 2.4248, RSN864_LANDERS_JOS000.AT2, RSN864_LANDERS_JOS090.AT2 , RSN864_LANDERS_JOS-UP.AT2  
5, RotD50, 1111, 0.0795, 1.6923, -, 4.5, 11.2, 3.4, "Kobe_ Japan", 1995, "Nishi-Akashi", 6.9, strike slip, 7.08, 7.08, 609.0, 0.125, 1.7387, RSN1111_KOBE_NIS000.AT2, RSN1111_KOBE_NIS090.AT2 , RSN1111_KOBE_NIS-UP.AT2  
6, RotD50, 1787, 0.0594, 2.1749, -, 7.6, 11.7, 1.9, "Hector Mine", 1999, "Hector", 7.13, strike slip, 10.35, 11.66, 726.0, 0.0375, 2.2345, RSN1787_HECTOR_HEC000.AT2, RSN1787_HECTOR_HEC090.AT2 , RSN1787_HECTOR_HECVER.AT2  
7, RotD50, 1794, 0.0639, 4.1934, -, 7.4, 14.6, 0.6, "Hector Mine", 1999, "Joshua Tree", 7.13, strike slip, 31.06, 31.06, 379.32, 0.0169, 4.3084, RSN1794_HECTOR_JOS090.AT2, RSN1794_HECTOR_JOS360.AT2 , RSN1794_HECTOR_JOS-UP.AT2  
8, RotD50, 2709, 0.086, 4.9514, -, 4.3, 12.1, 0.3, "Chi-Chi_ Taiwan-04", 1999, "CHY035", 6.2, strike slip, 25.01, 25.06, 573.04, 0.05, 5.0871, RSN2709_CHICHI.04_CHY035N.AT2, RSN2709_CHICHI.04_CHY035E.AT2 , RSN2709_CHICHI.04_CHY035V.AT2  
9, RotD50, 2734, 0.0416, 1.8741, 2.436, 4.4, 7.4, 1.6, "Chi-Chi_ Taiwan-04", 1999, "CHY074", 6.2, strike slip, 6.02, 6.2, 553.43, 0.08, 1.9255, RSN2734_CHICHI.04_CHY074N.AT2, RSN2734_CHICHI.04_CHY074E.AT2 , RSN2734_CHICHI.04_CHY074V.AT2  
10, RotD50, 3753, 0.093, 3.7278, -, 22.7, 29.6, 1.2, "Landers", 1992, "Fun Valley", 7.28, strike slip, 25.02, 25.02, 388.63, 0.0625, 3.83, RSN3753_LANDERS_FVR045.AT2, RSN3753_LANDERS_FVR135.AT2 , RSN3753_LANDERS_FVR-UP.AT2  
11, RotD50, 3756, 0.0516, 3.8409, -, 23.0, 32.9, 1.0, "Landers", 1992, "Morongo Valley Hall (GEOS #58)", 7.28, strike slip, 40.67, 40.67, 368.2, 0.05, 3.9461, RSN3756_LANDERS_MVP000.AT2, RSN3756_LANDERS_MVP090.AT2 , RSN3756_LANDERS_MVP-UP.AT2  
12, RotD50, 3943, 0.0587, 3.4996, -, 3.7, 9.9, 0.4, "Tottori_ Japan", 2000, "SMN015", 6.61, strike slip, 9.1, 9.12, 616.55, 0.075, 3.5955, RSN3943_TOTTORI_SMN015NS.AT2, RSN3943_TOTTORI_SMN015EW.AT2 , RSN3943_TOTTORI_SMN015UD.AT2  
13, RotD50, 6948, 0.0496, 4.8346, -, 17.8, 23.0, 0.5, "Darfield_ New Zealand", 2010, "OXZ", 7.0, strike slip, 30.63, 30.63, 481.62, 0.1, 4.9671, RSN6948_DARFIELD_OXZE.AT2, RSN6948_DARFIELD_OXZN.AT2 , RSN6948_DARFIELD_OXZUP.AT2  
14, RotD50, 6971, 0.0473, 3.7187, -, 16.1, 22.7, 1.0, "Darfield_ New Zealand", 2010, "SPFS", 7.0, strike slip, 29.86, 29.86, 389.54, 0.0375, 3.8206, RSN6971_DARFIELD_SPFSN17E.AT2, RSN6971_DARFIELD_SPFSN73W.AT2 , RSN6971_DARFIELD_SPFSUP.AT2  

 These records were obtained from the NGA-West2 On-Line Ground-Motion Database Tool
 These records are UNSCALED, AS RECORDED
 Filename Extension: 
   ,AT2 = Acceleration
   ,VT2 = Velocity
   ,DT2 = Displacement
 The users of the NGA-West2 databases, flatfiles, models and reports are requested to acknowledge the Pacific Earthquake Engineering Research Center (PEER) in their work and publications.

 -- Scaled Spectra used in Search & Scaling --
Period (sec),Target pSa (g),Arithmetic Mean pSa (g),Arithmetic Mean + Sigma pSa (g),Arithmetic Mean - Sigma pSa (g),RSN-164 RotD50 pSa (g),RSN-848 RotD50 pSa (g),RSN-850 RotD50 pSa (g),RSN-864 RotD50 pSa (g),RSN-1111 RotD50 pSa (g),RSN-1787 RotD50 pSa (g),RSN-1794 RotD50 pSa (g),RSN-2709 RotD50 pSa (g),RSN-2734 RotD50 pSa (g),RSN-3753 RotD50 pSa (g),RSN-3756 RotD50 pSa (g),RSN-3943 RotD50 pSa (g),RSN-6948 RotD50 pSa (g),RSN-6971 RotD50 pSa (g)
0.01,0.76336,0.66792347,0.74307146,0.60037532,0.59157736,0.70240482,0.62549136,0.65113833,0.80793088,0.68641221,0.61449234,0.61336063,0.60982355,0.7852496,0.62574342,0.77728983,0.6644014,0.59561288
0.02,0.76806,0.67018203,0.74421241,0.60351581,0.59270164,0.70828417,0.63147018,0.65567162,0.79902456,0.6811604,0.61620368,0.61698453,0.61382279,0.7927623,0.63125353,0.78075025,0.66605048,0.5964083
0.022,0.77087568,0.6726137,0.74593982,0.60649556,0.59244925,0.70844889,0.63232557,0.65597631,0.79970995,0.68386863,0.61654796,0.61786439,0.61607008,0.79072467,0.63958821,0.78331022,0.67950519,0.60020246
0.025,0.77466838,0.6762492,0.75100654,0.60893341,0.59386599,0.7265551,0.63723446,0.65398155,0.80092486,0.69029186,0.61853985,0.62065497,0.61475574,0.79330918,0.64206711,0.78609102,0.6902704,0.59894667
0.029,0.77909528,0.68470733,0.76124662,0.61586366,0.60331844,0.72871098,0.6312339,0.65399288,0.80242426,0.69555194,0.61925316,0.62370204,0.62160218,0.79737475,0.67242801,0.80372596,0.72828297,0.60430118
0.03,0.78011,0.68585994,0.76393187,0.61576677,0.60801761,0.72701066,0.62954205,0.65417885,0.80264612,0.69465978,0.6194209,0.62487749,0.6209884,0.79688827,0.67821313,0.82064242,0.72124137,0.60371215
0.032,0.78441603,0.69563686,0.78305909,0.61797462,0.62277606,0.7296511,0.63022756,0.65483756,0.803529,0.69559043,0.62195877,0.63305763,0.62823665,0.79910447,0.68180088,0.89078986,0.73308325,0.61427281
0.035,0.79043441,0.69969396,0.79086466,0.61903341,0.63569861,0.7225102,0.63156558,0.65517978,0.80497864,0.70279273,0.62621764,0.64685955,0.62070278,0.80129718,0.69592414,0.92245723,0.70755315,0.62197827
0.036,0.79233591,0.6985736,0.79305546,0.61534797,0.63120594,0.72180356,0.63226438,0.65534805,0.80667299,0.70356374,0.62451971,0.63958501,0.62477904,0.79488642,0.69536299,0.93677558,0.69491259,0.61835033
0.04,0.79948821,0.70502203,0.80973457,0.61385061,0.65087177,0.73969509,0.62320416,0.65227826,0.81635084,0.71588148,0.62598532,0.62426897,0.63037993,0.80525764,0.69080426,0.97420996,0.69457997,0.62654071
0.042,0.80282212,0.70667512,0.81159161,0.61532145,0.65328677,0.75386894,0.62174216,0.65483756,0.82360614,0.7217588,0.62377369,0.62980509,0.63210733,0.80487851,0.6879528,0.96866062,0.70037473,0.61679853
0.044,0.80601386,0.71339054,0.81781438,0.62230022,0.68637479,0.76642023,0.63210256,0.65843507,0.83475089,0.72026745,0.61983479,0.64607228,0.62500094,0.81870282,0.67612408,0.96574508,0.71230895,0.62532768
0.045,0.80756027,0.71587819,0.82319781,0.62254973,0.67543061,0.76121033,0.63533974,0.65844947,0.83921776,0.72527981,0.6209016,0.65137222,0.62543912,0.82508376,0.67422669,0.97639163,0.72847249,0.6254794
0.046,0.80907555,0.72291191,0.8366591,0.62462912,0.69347355,0.7641622,0.63587752,0.65776102,0.84276214,0.74012786,0.62921511,0.65646866,0.62538289,0.83189899,0.67553758,1.00547592,0.74069678,0.62192658
0.048,0.81201781,0.73543304,0.85088952,0.63564275,0.73820162,0.77156376,0.63745746,0.6575564,0.84927909,0.78155296,0.63672893,0.6687302,0.62555775,0.84535461,0.68455248,1.00486629,0.77643709,0.6182239
0.05,0.81485,0.74820058,0.86633421,0.6461757,0.76533504,0.76927195,0.64869056,0.65845277,0.85577166,0.81753442,0.63594434,0.67340181,0.63528888,0.84992233,0.69824748,1.00743361,0.83389782,0.62561551
0.055,0.84371824,0.76840623,0.90953543,0.64917551,0.80327771,0.80153183,0.66974547,0.66115108,0.8598757,0.79100544,0.63166702,0.66478595,0.68262173,0.85232976,0.70129482,1.11245582,0.89680328,0.62914155
0.06,0.870965,0.78870801,0.93126317,0.66797479,0.87456901,0.83408155,0.66237227,0.66806973,0.85095753,0.76330961,0.64837162,0.72671509,0.73803853,0.85769636,0.71777138,1.09960941,0.97782401,0.62252603
0.065,0.89680594,0.81396841,0.94587334,0.70045803,1.01533557,0.80131754,0.71574658,0.66592911,0.88604449,0.83825958,0.64348709,0.79039007,0.77011585,0.84543774,0.71592968,0.99891693,1.01488174,0.69376578
0.067,0.90678858,0.82761546,0.96760114,0.70788191,1.00967307,0.77674128,0.72898872,0.66379298,0.89205205,0.86235306,0.64416392,0.80448808,0.80836322,0.84938216,0.73631317,1.03722973,1.06298606,0.71008889
0.07,0.92141395,0.84047769,0.98856984,0.71457039,1.00562183,0.83110369,0.71862067,0.67696709,0.871112,0.89100934,0.64639231,0.79836077,0.82815776,0.87074453,0.73574587,1.06314757,1.10967046,0.72003374
0.075,0.94493,0.87453065,1.04729886,0.73026324,1.25949485,0.82336071,0.79186765,0.67565889,0.93443459,0.80301325,0.67656166,0.78839864,0.88025282,0.93260461,0.76805371,1.04572646,1.08172547,0.78227578
0.08,0.97382267,0.89614638,1.05768972,0.75927592,1.23633768,0.88563762,0.88110889,0.66053391,0.96044465,0.80350957,0.68976095,0.8008216,0.93757769,0.94079653,0.81442989,1.11345916,0.99689411,0.82473709
0.085,1.00176737,0.93579087,1.10582089,0.79190452,1.24606101,0.94273742,0.947225,0.67497941,0.99068178,0.91151266,0.70284283,0.79162197,0.96768359,1.03007894,0.79219894,1.11872119,1.11111552,0.87361198
0.09,1.02884837,0.99833755,1.22560814,0.81321087,1.51727665,0.94716652,0.97395845,0.67858589,1.05504041,0.97481346,0.72805091,0.85945759,1.0363088,1.04909314,0.81837062,1.20381096,1.18560566,0.94918659
0.095,1.05513824,1.02166564,1.26227573,0.8269197,1.53168956,0.94690246,1.07494441,0.67601597,1.0699328,0.95337644,0.71650802,0.81017521,1.09484456,1.11784263,0.84750706,1.26906348,1.13682402,1.05769227
0.1,1.0807,1.03761881,1.28247467,0.83951195,1.56165474,0.94795711,1.09139474,0.69829513,1.04976225,0.91761857,0.73432095,0.88109701,1.16671185,1.08107871,0.85718566,1.28724681,1.21489467,1.03744521
0.11,1.18056791,1.11254235,1.39855059,0.88502375,1.53548294,0.88096324,1.14926012,0.76512483,1.10448652,0.99796476,0.77772984,0.86121185,1.30444994,1.29469116,0.9815687,1.48958016,1.4543251,0.97875376
0.12,1.27977755,1.13166953,1.38672738,0.92352393,1.57689742,0.94575185,1.10110143,0.76603819,1.18427027,1.12915287,0.80738758,0.92120946,1.43408627,1.19930852,1.03843198,1.39416931,1.32118298,1.02438523
0.13,1.37838771,1.20666855,1.43066425,1.01774332,1.52032553,1.1857962,1.08048447,0.82217874,1.32790243,1.17398783,0.84541251,1.11223145,1.49511333,1.38720971,1.13893866,1.33903664,1.362836,1.10190619
0.133,1.40786145,1.20927982,1.41622309,1.03257579,1.50590234,1.23176736,1.10682787,0.85244049,1.29353571,1.15207993,0.84365839,1.09034397,1.42575307,1.42234791,1.21439788,1.37919338,1.25676815,1.154901
0.14,1.47644782,1.21249809,1.42305888,1.03309261,1.45586278,1.14724958,1.11819138,0.87516548,1.28082167,1.05917371,0.85200545,1.11822656,1.39705747,1.46454515,1.37618022,1.4347607,1.1849791,1.21075399
0.15,1.574,1.28981314,1.55327994,1.07103549,1.59358081,1.04090632,1.24488836,0.82141926,1.30084245,1.27477731,0.92312465,1.12436872,1.53307452,1.54199131,1.51719999,1.57932022,1.34568669,1.21620334
0.16,1.62136948,1.35799304,1.63987408,1.12456506,1.51347916,1.10853565,1.36248244,0.85962725,1.35215586,1.33552474,1.04535191,1.1635112,1.52799802,1.68932806,1.34265828,1.87686319,1.54447936,1.28990745
0.17,1.66716401,1.43008593,1.69922626,1.20357471,1.63219161,1.31241735,1.4597031,0.91718386,1.4384085,1.355055,1.1261194,1.25595953,1.57514253,1.72264932,1.26374765,1.92900019,1.57185822,1.46176669
0.18,1.71152423,1.50718961,1.77533649,1.27954363,1.61668935,1.54750106,1.57200588,1.06639942,1.59136312,1.32015622,1.2985783,1.38322682,1.32431569,2.01946855,1.37595784,1.97817895,1.55173127,1.455082
0.19,1.7545712,1.57397889,1.94336882,1.27480153,1.48083667,1.51581729,1.78613833,1.13339622,1.81342044,1.33635557,1.45953834,1.34919464,1.44134203,2.31819196,1.35091115,2.22840706,1.48286329,1.33929143
0.2,1.79641,1.62207315,2.11214664,1.24570958,1.49909056,1.51297736,1.87717166,1.05201552,2.13384027,1.48268208,1.49410032,1.32117637,1.53998206,2.54650811,1.34218547,2.37384603,1.21870047,1.31474781
0.22,1.79479022,1.68674061,2.15451875,1.32052408,1.56773845,1.61718793,1.4950407,1.24821702,2.48366411,1.77120882,1.36466158,1.51421703,1.65758394,2.08059089,1.26130832,2.5989948,1.24737645,1.7065785
0.24,1.79331275,1.73596097,2.10877928,1.42905448,1.53436893,1.78188194,1.59383969,1.47233479,2.34337952,1.49196209,1.69846716,1.64902227,1.816495,1.94226544,1.26234382,2.28416861,1.24091645,2.19200782
0.25,1.79262,1.70664104,2.03746099,1.42953591,1.59107404,1.74637935,1.68285109,1.52188498,2.13670198,1.42194574,1.68063872,1.55778306,1.733264,1.93923695,1.25558312,2.24901702,1.24758433,2.12903022
0.26,1.77588731,1.70103599,2.00341049,1.44429884,1.5795946,1.88957311,1.63323765,1.43574112,2.06346359,1.49194708,1.71807866,1.46759255,1.64687077,2.08346803,1.41342281,2.19179053,1.25630886,1.94341449
0.28,1.74469589,1.71916805,2.17903734,1.35635068,1.71176348,1.84587496,1.54278357,1.41685838,1.95788504,1.54066908,1.59196365,1.46419493,1.5748927,2.77249995,1.39693627,2.41264807,1.17283409,1.66654846
0.29,1.73011797,1.77696745,2.32333413,1.35908704,1.90267782,1.91685496,1.53324192,1.50439353,1.94115311,1.54280443,1.67598651,1.53649815,1.540787,3.2413081,1.4787867,2.26311419,1.24363059,1.55630727
0.3,1.71615,1.85023101,2.4945714,1.37232183,2.07736526,2.22523228,1.52179025,1.6436334,2.14404494,1.62519441,1.78761735,1.78602492,1.4105605,3.52560814,1.4191918,2.07460469,1.24109581,1.42127033
0.32,1.67944719,1.88329047,2.41424164,1.46910853,1.84318239,2.37531446,1.62137217,1.80073904,2.10070302,1.53898068,2.11971787,2.20847496,1.53570076,3.16951558,1.42674333,1.76927156,1.37570282,1.48064788
0.34,1.6456855,1.84719522,2.31014049,1.47702279,1.71008408,2.44848852,1.94545218,1.50628444,1.64519418,1.43757417,2.25120175,2.43456942,1.58728249,2.66773695,1.68543883,1.49164563,1.34466369,1.70511668
0.35,1.62978311,1.83216456,2.31589439,1.44947326,1.62017075,2.49032483,2.04230734,1.36605215,1.67777872,1.35372655,2.45165192,2.29031451,1.65256854,2.5287487,1.80135929,1.39351803,1.33257911,1.64920345
0.36,1.61447598,1.79908125,2.27974941,1.41975838,1.49217845,2.43043988,2.00697337,1.32458296,1.69827691,1.42039241,2.54121013,2.25347193,1.73558251,2.32710857,1.79821439,1.23785071,1.31630486,1.60455036
0.38,1.58549922,1.71561089,2.08259508,1.41329476,1.47518171,2.10662777,1.76783595,1.31134135,1.94310435,1.36440177,2.18583093,2.04524447,1.85934715,1.90862993,2.04751666,1.14263829,1.49212881,1.36872325
0.4,1.55849,1.62071187,1.9906598,1.31951576,1.5876536,1.82339362,1.40499278,1.28161275,2.43007521,1.32357522,1.74411075,1.61844415,1.90458546,1.59568557,2.05504899,1.20377806,1.43269218,1.28431791
0.42,1.54164889,1.62877342,2.15867092,1.22895195,1.64520799,1.79233032,1.22806488,1.40739341,3.04618844,1.39126134,1.64221499,1.4264111,1.93026501,1.52501102,1.90305241,1.10497783,1.26073446,1.49971464
0.44,1.52576088,1.65765324,2.23692241,1.22839052,1.56994215,2.03573453,1.23078157,1.4326017,3.1798696,1.69055575,1.59214439,1.19917981,1.95775872,1.65929922,1.74628931,1.18653018,1.21188513,1.51457334
0.45,1.51814447,1.63646302,2.2451163,1.19281625,1.43608942,2.08408146,1.17697937,1.4251204,3.19843432,1.76958437,1.59782777,1.10229655,1.89627738,1.68728371,1.62683602,1.25619782,1.1011398,1.55233387
0.46,1.51073225,1.61885817,2.23729501,1.17137068,1.41147853,2.04129164,1.10176319,1.46446478,3.20410019,1.86581432,1.6214373,1.09360889,1.80467158,1.63542728,1.52677143,1.30111195,1.04548624,1.54658703
0.48,1.49648207,1.64310369,2.20613432,1.2237649,1.3724174,1.96247211,1.16780241,1.51705266,3.04524582,2.08557596,1.7799274,1.09258049,1.83040716,1.54397601,1.57938171,1.34054987,1.16931691,1.51674579
0.5,1.48294,1.6499004,2.15957821,1.26051064,1.29016069,1.90272509,1.21199494,1.43211316,2.72968293,2.21803466,2.01301601,1.08288326,1.84310618,1.62259793,1.66503767,1.30669105,1.17087946,1.60968251
0.55,1.44137205,1.57743298,1.98488241,1.25362328,1.31345346,2.0404041,1.07674293,1.14440588,1.95664288,1.73337324,1.60560787,1.22325877,1.80051866,1.46287918,2.31550975,1.18325139,1.44560541,1.7824082
0.6,1.40444174,1.48978596,1.95163816,1.13723037,1.36535598,1.35222811,1.09050474,1.39279002,1.43786357,1.11542186,1.29486667,1.59443798,1.73303311,1.80224793,2.66269577,0.93452497,1.42918709,1.65184557
0.65,1.3713053,1.48255135,1.96487934,1.11862264,1.34782193,1.44403131,1.20068617,1.53465787,1.65309916,0.87674547,1.34147853,1.50165395,1.59063365,2.26748892,2.27826255,0.75290832,1.22838854,1.73786258
0.667,1.36078483,1.47870854,1.99170312,1.09784382,1.23585071,1.61799771,1.20067208,1.68865903,1.72277319,0.85142032,1.32950413,1.37383112,1.5249799,2.44059731,2.08464326,0.69779735,1.2171123,1.71608119
0.7,1.34132317,1.44030981,2.03863823,1.01758728,1.07388857,1.83746612,1.17481052,2.15690449,1.60863947,0.80252715,1.25689542,1.19093827,1.38554197,2.58346773,1.72594884,0.68418838,1.10069985,1.58242054
0.75,1.314,1.30614755,1.81222893,0.94139399,1.13341002,1.52805694,0.95759305,2.01249151,1.42052545,0.69719814,1.30115894,1.0438913,1.22980515,2.1118432,1.15818909,0.65614452,1.18611958,1.84963884
0.8,1.29694615,1.20020147,1.57973,0.91185429,1.11630165,1.16067982,0.94262082,1.6116542,1.03102322,0.71967043,1.47549567,1.18441931,1.29589708,1.674873,1.02384974,0.61755876,1.16837272,1.78040421
0.85,1.22328507,1.12876932,1.45750312,0.87418007,1.02369011,0.97004266,1.17394668,1.49436473,0.79856476,0.68196773,1.29493,1.33032698,1.25031993,1.45541307,1.10263017,0.62385002,1.00151261,1.601211
0.9,1.12353087,1.06973566,1.36164769,0.84040417,0.81255242,0.83654807,1.19335805,1.40247306,0.79516726,0.710691,1.34601793,1.37379299,1.17304797,1.24976216,1.07782431,0.62546615,1.04191927,1.33767864
0.95,1.03666932,0.96878083,1.24673668,0.75279432,0.68276908,0.71275685,1.09694929,1.24021838,0.65868701,0.6856723,1.30164916,1.37954944,0.98638175,0.91800081,0.96256563,0.69148404,1.03571067,1.21053719
1.0,0.96048,0.93018422,1.21329708,0.71313341,0.72652904,0.69515058,1.09578155,0.97831602,0.48382078,0.78372811,1.26002541,1.42505789,0.87213627,0.84453523,0.91080532,0.74114295,0.94782093,1.25772902
1.1,0.82104083,0.88265456,1.20193579,0.64818693,0.97769974,0.58420151,0.97824422,1.29303024,0.42786061,0.99198152,1.23340163,1.23994387,0.62017146,0.61770798,0.91134804,0.6591255,0.68414254,1.13830494
1.2,0.71149657,0.79418605,1.11420522,0.56608196,0.83283467,0.6694733,0.72448196,1.31338804,0.39488413,1.03544453,1.12084488,1.062143,0.52233843,0.49420851,0.95978522,0.5728693,0.52158668,0.89432202
1.3,0.62367993,0.70978343,0.95798516,0.5258876,0.56213375,0.65457002,0.73930364,1.08653443,0.34975682,0.97121786,0.90383814,0.90502248,0.52588975,0.43452809,0.85334786,0.55799802,0.55633347,0.83649367
