
 PEER Ground Motion Database, Time Series Search Report -- NGA-West2 -- 2022-05-15


 -- Summary of PEER Ground Motion Database Search Criteria --
Magnitude Min:, 6.0
Magnitude Max:, 7.5
Rrup Min (km):, 0.0
Rrup Max (km):, 50.0
Rjb Min (km):, -1.0e-06
Rjb Max (km):, 99999
Vs30 Min (m/sec):, 330.0
Vs30 Max (m/sec):, 1030.0
D9-95 Min (sec):, -1.0e-06
D9-95 Max (sec):, 99999
Scale Factor Min:, 0.25
Scale Factor Max:, 5.5
Period Array:, 0.010, 0.013, 0.016, 0.020, 0.026, 0.033, 0.042, 0.053, 0.067, 0.085, 0.108, 0.137, 0.174, 0.221, 0.281, 0.356, 0.452, 0.574, 0.728, 0.924, 1.172, 1.487, 1.887, 2.395, 3.039, 3.857, 4.894, 6.210, 7.880, 10.
Weight Array:, 1, 1, 1, 1, 1, 1, 1, 1, 1, 1, 1, 1, 1, 1, 1, 1, 1, 1, 1, 1, 1, 1, 1, 1, 1, 1, 1, 1, 1, 1
Record Sequence Number:, 
Earthquake Name:, 
Station Name:, 
User-Defined Maximum Number of Records:, 14
Pulse:, 1
Damping Ratio:, 0.05
Scaling Method:, Minimize MSE
Suite Average:, Arithmetic
Single-Period-Scaling Period (sec):, 
Component:, RotD50
Fault Type:, Strike Slip (SS)


 -- Summary of Metadata of Selected Records --
Result ID, Spectral Ordinate, Record Sequence Number, Mean Squared Error, Scale Factor, Tp-Pulse Period (sec), 5-75% Duration (sec), 5-95% Duration (sec), Arias Intensity (m/sec), Earthquake Name, Year, Station Name, Magnitude, Mechanism, Rjb (km), Rrup (km), Vs30 (m/sec), Lowest Useable Frequency (Hz), Initial-search Scale Factor, Horizontal-1 Acc. Filename, Horizontal-2 Acc. Filename, Vertical Acc. Filename
1, RotD50, 164, 0.0368, 2.6493, -, 19.7, 36.4, 1.3, "Imperial Valley-06", 1979, "Cerro Prieto", 6.53, strike slip, 15.19, 15.19, 471.53, 0.1125, 2.7115, RSN164_IMPVALL.H_H-CPE147.AT2, RSN164_IMPVALL.H_H-CPE237.AT2 , RSN164_IMPVALL.H_H-CPEDWN.AT2  
2, RotD50, 850, 0.0425, 3.1141, -, 22.6, 31.7, 0.7, "Landers", 1992, "Desert Hot Springs", 7.28, strike slip, 21.78, 21.78, 359.0, 0.07, 3.1872, RSN850_LANDERS_DSP000.AT2, RSN850_LANDERS_DSP090.AT2 , RSN850_LANDERS_DSP-UP.AT2  
3, RotD50, 1787, 0.0556, 1.6826, -, 7.6, 11.7, 1.9, "Hector Mine", 1999, "Hector", 7.13, strike slip, 10.35, 11.66, 726.0, 0.0375, 1.7221, RSN1787_HECTOR_HEC000.AT2, RSN1787_HECTOR_HEC090.AT2 , RSN1787_HECTOR_HECVER.AT2  
4, RotD50, 1794, 0.0821, 3.2442, -, 7.4, 14.6, 0.6, "Hector Mine", 1999, "Joshua Tree", 7.13, strike slip, 31.06, 31.06, 379.32, 0.0169, 3.3203, RSN1794_HECTOR_JOS090.AT2, RSN1794_HECTOR_JOS360.AT2 , RSN1794_HECTOR_JOS-UP.AT2  
5, RotD50, 2709, 0.0875, 3.8305, -, 4.3, 12.1, 0.3, "Chi-Chi_ Taiwan-04", 1999, "CHY035", 6.2, strike slip, 25.01, 25.06, 573.04, 0.05, 3.9205, RSN2709_CHICHI.04_CHY035N.AT2, RSN2709_CHICHI.04_CHY035E.AT2 , RSN2709_CHICHI.04_CHY035V.AT2  
6, RotD50, 2734, 0.0578, 1.4499, 2.436, 4.4, 7.4, 1.6, "Chi-Chi_ Taiwan-04", 1999, "CHY074", 6.2, strike slip, 6.02, 6.2, 553.43, 0.08, 1.4839, RSN2734_CHICHI.04_CHY074N.AT2, RSN2734_CHICHI.04_CHY074E.AT2 , RSN2734_CHICHI.04_CHY074V.AT2  
7, RotD50, 2739, 0.0862, 3.6399, -, 7.0, 11.9, 0.3, "Chi-Chi_ Taiwan-04", 1999, "CHY080", 6.2, strike slip, 12.44, 12.53, 496.21, 0.04, 3.7253, RSN2739_CHICHI.04_CHY080N.AT2, RSN2739_CHICHI.04_CHY080E.AT2 , RSN2739_CHICHI.04_CHY080V.AT2  
8, RotD50, 3752, 0.0638, 4.5534, -, 18.3, 27.3, 0.3, "Landers", 1992, "Forest Falls Post Office", 7.28, strike slip, 45.34, 45.34, 436.14, 0.125, 4.6603, RSN3752_LANDERS_FFP210.AT2, RSN3752_LANDERS_FFP300.AT2 , RSN3752_LANDERS_FFP-UP.AT2  
9, RotD50, 3756, 0.0712, 2.9714, -, 23.0, 32.9, 1.0, "Landers", 1992, "Morongo Valley Hall (GEOS #58)", 7.28, strike slip, 40.67, 40.67, 368.2, 0.05, 3.0412, RSN3756_LANDERS_MVP000.AT2, RSN3756_LANDERS_MVP090.AT2 , RSN3756_LANDERS_MVP-UP.AT2  
10, RotD50, 3759, 0.0567, 4.4075, -, 23.2, 33.4, 0.6, "Landers", 1992, "Whitewater Trout Farm", 7.28, strike slip, 27.05, 27.05, 425.02, 0.375, 4.511, RSN3759_LANDERS_WWT180.AT2, RSN3759_LANDERS_WWT270.AT2 , RSN3759_LANDERS_WWT-UP.AT2  
11, RotD50, 3943, 0.0394, 2.7074, -, 3.7, 9.9, 0.4, "Tottori_ Japan", 2000, "SMN015", 6.61, strike slip, 9.1, 9.12, 616.55, 0.075, 2.771, RSN3943_TOTTORI_SMN015NS.AT2, RSN3943_TOTTORI_SMN015EW.AT2 , RSN3943_TOTTORI_SMN015UD.AT2  
12, RotD50, 6891, 0.067, 4.4004, -, 15.4, 28.9, 0.4, "Darfield_ New Zealand", 2010, "CSHS", 7.0, strike slip, 43.6, 43.6, 638.39, 0.0375, 4.5037, RSN6891_DARFIELD_CSHSN76W.AT2, RSN6891_DARFIELD_CSHSS14W.AT2 , RSN6891_DARFIELD_CSHSUP.AT2  
13, RotD50, 6948, 0.0363, 3.7402, -, 17.8, 23.0, 0.5, "Darfield_ New Zealand", 2010, "OXZ", 7.0, strike slip, 30.63, 30.63, 481.62, 0.1, 3.828, RSN6948_DARFIELD_OXZE.AT2, RSN6948_DARFIELD_OXZN.AT2 , RSN6948_DARFIELD_OXZUP.AT2  
14, RotD50, 6971, 0.0675, 2.8769, -, 16.1, 22.7, 1.0, "Darfield_ New Zealand", 2010, "SPFS", 7.0, strike slip, 29.86, 29.86, 389.54, 0.0375, 2.9444, RSN6971_DARFIELD_SPFSN17E.AT2, RSN6971_DARFIELD_SPFSN73W.AT2 , RSN6971_DARFIELD_SPFSUP.AT2  

 These records were obtained from the NGA-West2 On-Line Ground-Motion Database Tool
 These records are UNSCALED, AS RECORDED
 Filename Extension: 
   ,AT2 = Acceleration
   ,VT2 = Velocity
   ,DT2 = Displacement
 The users of the NGA-West2 databases, flatfiles, models and reports are requested to acknowledge the Pacific Earthquake Engineering Research Center (PEER) in their work and publications.

 -- Scaled Spectra used in Search & Scaling --
Period (sec),Target pSa (g),Arithmetic Mean pSa (g),Arithmetic Mean + Sigma pSa (g),Arithmetic Mean - Sigma pSa (g),RSN-164 RotD50 pSa (g),RSN-850 RotD50 pSa (g),RSN-1787 RotD50 pSa (g),RSN-1794 RotD50 pSa (g),RSN-2709 RotD50 pSa (g),RSN-2734 RotD50 pSa (g),RSN-2739 RotD50 pSa (g),RSN-3752 RotD50 pSa (g),RSN-3756 RotD50 pSa (g),RSN-3759 RotD50 pSa (g),RSN-3943 RotD50 pSa (g),RSN-6891 RotD50 pSa (g),RSN-6948 RotD50 pSa (g),RSN-6971 RotD50 pSa (g)
0.01,0.5925,0.49714381,0.54582558,0.45280393,0.45766275,0.48389968,0.53102996,0.47539049,0.47451497,0.47177857,0.44223506,0.49219346,0.48409468,0.59498163,0.60133572,0.47610992,0.5140017,0.46078475
0.02,0.59838,0.50029292,0.54964173,0.45537482,0.45853253,0.48852508,0.52696699,0.47671444,0.47731853,0.4748725,0.44704625,0.50284877,0.48835747,0.60386143,0.60401281,0.47836645,0.51527749,0.46140011
0.022,0.60172266,0.50247985,0.55124361,0.45802979,0.45833727,0.48918684,0.52906216,0.47698079,0.47799921,0.47661108,0.45026318,0.50347167,0.49480544,0.60062456,0.60599329,0.48136048,0.52568647,0.4643354
0.025,0.60623528,0.50615217,0.5596375,0.4577785,0.4594333,0.49298451,0.53403137,0.47852178,0.4801581,0.47559426,0.44970082,0.5097125,0.49672319,0.62331045,0.6081446,0.48043684,0.53401477,0.46336387
0.029,0.6115171,0.51392155,0.57203657,0.46171061,0.46674602,0.48834228,0.53810073,0.47907361,0.48251541,0.48089089,0.45153132,0.51918347,0.52021134,0.63406169,0.62178754,0.48152858,0.56342248,0.4675063
0.03,0.61273,0.51615881,0.576603,0.46205087,0.47038144,0.48703342,0.53741053,0.47920338,0.48342477,0.48041604,0.45619619,0.52334524,0.52468689,0.64095768,0.63487465,0.48326762,0.55797488,0.4670506
0.032,0.61790183,0.52696399,0.60004138,0.46278649,0.48179904,0.48756375,0.53813052,0.48116676,0.48975319,0.48602352,0.46292924,0.53472225,0.52746249,0.6695536,0.6891429,0.48689179,0.56713613,0.47522066
0.035,0.62515541,0.53143893,0.61315203,0.46061551,0.49179633,0.48859889,0.54370244,0.48446155,0.50043078,0.48019508,0.47059556,0.51574979,0.53838868,0.70205326,0.71364176,0.48196378,0.54738525,0.48118184
0.036,0.62745322,0.53146991,0.61620952,0.45838348,0.48832066,0.4891395,0.54429892,0.48314798,0.49480297,0.48334861,0.47121944,0.52025442,0.53795455,0.70547921,0.72471888,0.48191229,0.53760612,0.47837516
0.04,0.63612227,0.53960871,0.63076334,0.46162728,0.50353476,0.48213023,0.5538283,0.48428182,0.482954,0.48768163,0.47104654,0.58585323,0.53442778,0.70457612,0.7536793,0.48846802,0.53734879,0.48471149
0.042,0.6401772,0.54074217,0.63168126,0.46289499,0.50540308,0.48099918,0.55837519,0.48257084,0.48723691,0.489018,0.47374624,0.59697935,0.5322218,0.70512176,0.74938615,0.49032543,0.5418318,0.47717463
0.044,0.64406752,0.54175144,0.62909812,0.46653234,0.53100101,0.48901431,0.55722143,0.47952358,0.49982173,0.48352027,0.47637897,0.56855139,0.52307073,0.70335964,0.7471306,0.4910889,0.55106448,0.48377305
0.045,0.64595532,0.54234071,0.63155791,0.4657268,0.52253424,0.49151869,0.56109914,0.4803489,0.50392192,0.48385926,0.47727838,0.54674356,0.52160286,0.70715759,0.7553671,0.49387876,0.5635691,0.48389043
0.046,0.64780697,0.54661816,0.64163294,0.46567343,0.53649282,0.49193474,0.57258606,0.48678049,0.50786468,0.48381576,0.47388019,0.53336307,0.522617,0.71329505,0.77786762,0.49798874,0.5730262,0.48114186
0.048,0.65140759,0.55912292,0.65479307,0.47743089,0.57109586,0.49315703,0.60463381,0.49259342,0.5173506,0.48395104,0.49943361,0.55222398,0.52959121,0.72426534,0.77739599,0.50307561,0.60067601,0.47827734
0.05,0.65488,0.57344841,0.67283471,0.48874274,0.59208712,0.50184731,0.63247019,0.49198643,0.5209647,0.49147934,0.51804433,0.58521667,0.54018609,0.74068287,0.77938215,0.50480541,0.64512943,0.48399572
0.055,0.68176259,0.58394541,0.69981037,0.48726377,0.62144076,0.51813604,0.61194655,0.48867736,0.5142992,0.52809752,0.49074194,0.60013756,0.54254361,0.71589416,0.86063061,0.50217177,0.69379507,0.48672358
0.06,0.70726691,0.60618966,0.73062621,0.5029465,0.67659394,0.5124319,0.59052019,0.50160057,0.56220952,0.57096969,0.51234755,0.60282176,0.55529039,0.79231332,0.85069223,0.52078329,0.75647524,0.48160561
0.065,0.73157032,0.63337941,0.74812039,0.53623653,0.78549535,0.55372394,0.64850383,0.49782174,0.61147048,0.5957857,0.54675499,0.63076752,0.55386559,0.80973665,0.77279338,0.53872946,0.78514426,0.5367189
0.067,0.74098837,0.64931439,0.77156395,0.54643452,0.78111467,0.56396847,0.6671433,0.49834535,0.62237714,0.62537507,0.55630604,0.6512098,0.56963489,0.84008897,0.80243336,0.54069821,0.82235926,0.54934698
0.07,0.75481567,0.66407477,0.8018427,0.54997733,0.7779805,0.55594742,0.68931269,0.50006931,0.61763686,0.64068874,0.58718716,0.68921164,0.56919602,0.90198627,0.82248421,0.52982964,0.85847577,0.55704062
0.075,0.77712,0.71259776,0.88899741,0.57120028,0.9743846,0.61261358,0.62123617,0.52340926,0.60992984,0.68099111,0.68569218,0.79861964,0.59419037,1.0722585,0.80900669,0.55198701,0.83685666,0.60519301
0.08,0.80264002,0.73481134,0.89098762,0.60601033,0.9564695,0.6816534,0.62162014,0.53362065,0.61954064,0.72533942,0.82312974,0.74572469,0.63006843,1.05711606,0.86140683,0.62239836,0.77122846,0.63804241
0.085,0.82737525,0.78497573,0.96976857,0.63539582,0.96399177,0.73280288,0.7051747,0.5437412,0.61242352,0.74863029,0.94861284,0.85861964,0.61286988,1.18265736,0.8654777,0.67921113,0.85959372,0.67585356
0.09,0.85139398,0.83989231,1.04747324,0.67344831,1.17381267,0.75348472,0.75414618,0.56324295,0.66490327,0.8017209,0.9463805,0.94936754,0.6331171,1.21528527,0.93130581,0.72018331,0.91722162,0.73432043
0.095,0.87475515,0.85255091,1.05878691,0.68648662,1.18496295,0.83161061,0.73756183,0.55431302,0.62677689,0.84700599,0.86909999,0.94718329,0.65565796,1.22774398,0.9817872,0.77426255,0.87948262,0.81826383
0.1,0.89751,0.88250336,1.10362782,0.70568372,1.20814495,0.8443371,0.70989843,0.56809365,0.68164421,0.90260478,0.87758455,1.04104796,0.66314563,1.29391216,0.99585439,0.82629868,0.93988051,0.80260006
0.11,0.97194108,0.95653641,1.2271244,0.74561462,1.18789762,0.88910357,0.77205675,0.60167613,0.66626043,1.00916327,1.03010142,1.09572646,0.75937225,1.50902419,1.1523858,0.83643589,1.12511138,0.75719452
0.12,1.04526848,0.96424675,1.22758368,0.75739993,1.21993716,0.8518465,0.87354797,0.62462029,0.71267645,1.10945399,0.86616479,1.1201461,0.80336346,1.56168027,1.07857298,0.86283965,1.02210847,0.79249645
0.13,1.11759877,0.99648256,1.24087252,0.80022523,1.17617138,0.83589658,0.9082337,0.65403756,0.86045704,1.15666643,0.98975078,1.15402351,0.88111857,1.58197729,1.03592062,0.80970078,1.05433256,0.85246909
0.133,1.13911711,0.99903221,1.24394487,0.8023389,1.16501315,0.85627665,0.89128507,0.65268052,0.84352419,1.10300716,1.06321924,1.18519259,0.93949618,1.58632883,1.06698714,0.76769758,0.97227515,0.89346754
0.14,1.18902088,1.01784352,1.28413832,0.8067709,1.12630098,0.86506783,0.81940991,0.65913806,0.86509504,1.08080735,1.12141585,1.37956435,1.06465606,1.56938328,1.10997575,0.73558077,0.91673689,0.93667716
0.15,1.25961,1.07509553,1.29289086,0.89398915,1.23284396,0.96308457,0.9862076,0.7141581,0.86984681,1.18603439,1.25635391,1.37423647,1.17375336,1.31579809,1.22181152,0.77525044,1.04106531,0.94089294
0.16,1.29010598,1.10962865,1.333905,0.92306104,1.17087482,1.05405903,1.03320371,0.80871694,0.90012866,1.18210706,1.47334763,1.15579567,1.03872244,1.30549598,1.45200007,0.76757877,1.19485754,0.99791275
0.17,1.31942475,1.13633618,1.34581172,0.95946549,1.26271448,1.12927197,1.04831293,0.87120119,0.97164958,1.21857952,1.41207496,1.04298086,0.97767471,1.32922689,1.49233488,0.80577738,1.21603868,1.13086843
0.18,1.3476772,1.14459757,1.31857389,0.99357616,1.25072144,1.21615292,1.02131414,1.00462079,1.07010753,1.02453203,1.24338355,1.1956653,1.06448402,1.2647437,1.53038111,0.81209461,1.20046784,1.12569695
0.19,1.37495828,1.17965662,1.39642757,0.99653556,1.14562156,1.38181248,1.03384646,1.12914451,1.04377917,1.11506727,1.1084495,1.43160008,1.04510712,1.23524292,1.7239654,0.93824898,1.14718942,1.03611774
0.2,1.40135,1.19858686,1.4508522,0.99018388,1.15974335,1.4522387,1.14704923,1.15588274,1.02210337,1.19137828,1.07120187,1.34286386,1.03835666,1.380752,1.83648153,1.02220962,0.9428248,1.01713003
0.22,1.38800693,1.2613862,1.58174297,1.00591258,1.2128515,1.15661024,1.37026254,1.05574488,1.17144566,1.28235878,0.93017029,1.20740886,0.97578756,1.72816337,2.01066367,1.27266757,0.96500943,1.3202625
0.24,1.37593663,1.32885816,1.59153313,1.10953644,1.18703579,1.23304424,1.15422854,1.31398732,1.2757352,1.40529734,1.15666556,1.36862628,0.97658866,1.64261934,1.76710428,1.46726411,0.96001178,1.69580581
0.25,1.37031,1.29808289,1.53669712,1.09652005,1.23090464,1.30190624,1.1000617,1.30019468,1.2051497,1.34090724,1.13182446,1.3109667,0.97135837,1.47293418,1.73990991,1.45478808,0.96517026,1.64708437
0.26,1.35206901,1.29075352,1.5195223,1.09642658,1.22202378,1.26352373,1.15421693,1.32915939,1.1353755,1.27407073,1.05767789,1.2519229,1.09346809,1.66261401,1.6956377,1.45545254,0.97191983,1.50348623
0.28,1.31826271,1.24779005,1.4936633,1.04239021,1.32427376,1.19354562,1.19190979,1.23159287,1.13274699,1.21838625,1.01899395,1.11630307,1.08071359,1.45642365,1.86650001,1.44103593,0.90734113,1.28929402
0.29,1.30255107,1.24530996,1.46143046,1.06114997,1.47197107,1.1861639,1.19356176,1.29659558,1.18868303,1.19200101,1.05976318,0.99800692,1.14403564,1.43003854,1.75081592,1.35658332,0.96211152,1.20400798
0.3,1.28755,1.23664247,1.46740148,1.04217191,1.60711473,1.17730453,1.25730123,1.38295669,1.38172474,1.09125371,1.02232081,0.92743221,1.09793116,1.3953986,1.60497908,1.30758743,0.96015054,1.09953918
0.32,1.25182461,1.24879057,1.51696737,1.02802335,1.42594354,1.25434422,1.19060359,1.63988005,1.70854531,1.18806613,0.97530154,0.75103526,1.10377326,1.2770098,1.36876382,1.39003917,1.06428673,1.14547551
0.34,1.21916919,1.26870519,1.57831122,1.01983236,1.32297453,1.50506265,1.11215234,1.74160009,1.88345905,1.22797138,1.03507349,0.79657746,1.30390819,1.06599279,1.15398371,1.2537115,1.04027389,1.3191316
0.35,1.20385749,1.26035882,1.59887877,0.99351145,1.25341476,1.57999284,1.0472852,1.8966746,1.77185894,1.27847871,1.02391471,0.7915073,1.39358788,1.01055601,1.07806913,1.2128832,1.03092488,1.27587537
0.36,1.18916143,1.24333901,1.59951672,0.96647436,1.15439592,1.55265737,1.09885999,1.96595964,1.74335637,1.34270091,0.95466341,0.82704213,1.39115489,1.0459395,0.95764003,1.11271103,1.01833461,1.24133035
0.38,1.16145657,1.17863685,1.51179554,0.91889729,1.14124671,1.36765318,1.05554389,1.69102718,1.58226509,1.4384491,0.79430042,0.79438001,1.58402293,0.88370568,0.88398072,1.07109638,1.15435752,1.05888711
0.4,1.13577,1.10757729,1.37683892,0.89097384,1.22825848,1.08694636,1.02395919,1.34929862,1.25207902,1.47344688,0.81259083,0.74597512,1.58985017,0.81866494,0.93128036,1.09176817,1.10837548,0.9935885
0.42,1.11734236,1.07677898,1.33189782,0.87052696,1.27278436,0.9500694,1.07632329,1.27046888,1.10351624,1.49331337,0.77831734,0.75740905,1.47226086,0.84536564,0.85484541,1.06466211,0.97534361,1.16022615
0.44,1.10005065,1.06913691,1.31884398,0.86670883,1.21455635,0.95217112,1.3078668,1.2317327,0.92772301,1.51458337,0.75625565,0.7393254,1.35098403,0.89209758,0.91793686,1.05341027,0.93755224,1.17172131
0.45,1.0917935,1.047997,1.3011373,0.84410594,1.11100369,0.91054805,1.36900581,1.23612954,0.85277109,1.46701948,0.72566427,0.76037875,1.25857123,0.84322447,0.97183393,1.11299749,0.85187619,1.20093403
0.46,1.08377779,1.03905342,1.29962431,0.83072623,1.09196394,0.85235846,1.44345231,1.25439461,0.84605004,1.39615037,0.7097558,0.79120404,1.18115813,0.79770283,1.0065809,1.17066746,0.80882086,1.1964881
0.48,1.06842323,1.0855181,1.37250876,0.858537,1.06174503,0.90344847,1.61346679,1.37700751,0.84525444,1.41606022,0.82191147,0.77121983,1.22185909,0.79437119,1.03709131,1.25579597,0.90462014,1.17340198
0.5,1.0539,1.14037485,1.46864802,0.88547751,0.99810866,0.93763719,1.71594098,1.55733215,0.83775236,1.42588458,0.92562007,0.8433017,1.28812522,0.83126513,1.01089706,1.44225308,0.90582897,1.24530073
0.55,1.01253575,1.17091901,1.44140428,0.95119138,1.01612868,0.833002,1.34099175,1.24214847,0.94635125,1.39293754,0.97457684,1.04530762,1.79135076,1.14828981,0.91540028,1.24908887,1.11836556,1.37892673
0.6,0.97619239,1.11619449,1.47145296,0.84670742,1.05628209,0.84364857,0.86292524,1.00174936,1.23350709,1.34072861,1.12181224,0.99568972,2.05994473,0.98916813,0.72297775,1.01470605,1.10566383,1.2779194
0.65,0.94391282,1.06624999,1.37854363,0.82470298,1.0427172,0.92888837,0.67827772,1.03780975,1.16172646,1.23056394,1.05007818,0.98596239,1.76253516,0.97129303,0.58247343,1.20038957,0.95031979,1.34446485
0.667,0.93373046,1.02819764,1.31077472,0.80653858,0.95609276,0.92887747,0.65868539,1.02854598,1.06283872,1.17977214,1.09070945,0.92510044,1.61274522,1.04612417,0.53983786,1.0962271,0.94159614,1.32761409
0.7,0.91497899,0.95651975,1.19333202,0.76670199,0.83079378,0.90887016,0.62086011,0.97237361,0.9213471,1.0718986,1.15411073,0.86572014,1.33524801,1.1111367,0.52930953,0.9938622,0.85153583,1.22421002
0.75,0.88884,0.89374372,1.14317759,0.69873468,0.87684144,0.74082393,0.53937429,1.00661726,0.80758696,0.95141573,1.02607789,0.76854974,0.8960113,1.00201822,0.50761392,1.04092367,0.91761921,1.43093846
0.8,0.87306226,0.88858204,1.1430133,0.69078639,0.86360587,0.72924095,0.55675956,1.1414896,0.91630383,1.00254651,1.06477165,0.73578289,0.79208218,1.01081958,0.47776277,0.86771707,0.90388968,1.37737638
0.85,0.8262988,0.8643074,1.1006412,0.67872008,0.79195868,0.90820187,0.52759157,1.00179835,1.02918256,0.9672866,1.18357084,0.68808605,0.85302918,0.87145545,0.48262989,0.78196414,0.77480148,1.23874691
0.9,0.76531407,0.83829879,1.10589052,0.63545608,0.62861597,0.92321911,0.54981279,1.04132157,1.06280923,0.90750659,1.37958756,0.64350598,0.83383859,0.73247301,0.48388017,0.70868109,0.80606133,1.03487004
0.95,0.71177549,0.78345626,1.02129244,0.60100681,0.52821152,0.84863428,0.53045754,1.0069965,1.0672626,0.76309577,1.2348757,0.67529796,0.74467087,0.63242871,0.53495368,0.6637349,0.80125817,0.93650944
1.0,0.66445,0.75452382,0.94724109,0.60101509,0.56206559,0.84773088,0.60631658,0.97479507,1.10246936,0.6747119,0.86562936,0.62435412,0.70462748,0.52215678,0.57337137,0.79882254,0.73326392,0.97301851
1.1,0.5738788,0.69161008,0.89105919,0.53680441,0.7563791,0.75680032,0.76742793,0.95419808,0.95925936,0.47978403,0.50911534,0.59675032,0.70504735,0.43018546,0.5099201,0.84777134,0.52927407,0.8806283
1.2,0.50201822,0.58864257,0.79816378,0.43412152,0.64430695,0.5604819,0.80105228,0.86712065,0.82170704,0.40409735,0.35000031,0.55233144,0.74251987,0.30200935,0.44318961,0.65678797,0.40351577,0.69187549
1.3,0.44388657,0.51598566,0.69103883,0.38527676,0.43488425,0.57194842,0.75136451,0.69923746,0.7001537,0.40684476,0.30889717,0.40899735,0.6601766,0.257559,0.43168472,0.51451667,0.43039697,0.64713767
