
 PEER Ground Motion Database, Time Series Search Report -- NGA-West2 -- 2022-05-15


 -- Summary of PEER Ground Motion Database Search Criteria --
Magnitude Min:, 6.0
Magnitude Max:, 7.5
Rrup Min (km):, 0.0
Rrup Max (km):, 50.0
Rjb Min (km):, -1.0e-06
Rjb Max (km):, 99999
Vs30 Min (m/sec):, 330.0
Vs30 Max (m/sec):, 1030.0
D9-95 Min (sec):, -1.0e-06
D9-95 Max (sec):, 99999
Scale Factor Min:, 0.25
Scale Factor Max:, 5.5
Period Array:, 0.010, 0.013, 0.016, 0.020, 0.026, 0.033, 0.042, 0.053, 0.067, 0.085, 0.108, 0.137, 0.174, 0.221, 0.281, 0.356, 0.452, 0.574, 0.728, 0.924, 1.172, 1.487, 1.887, 2.395, 3.039, 3.857, 4.894, 6.210, 7.880, 10.0
Weight Array:, 1, 1, 1, 1, 1, 1, 1, 1, 1, 1, 1, 1, 1, 1, 1, 1, 1, 1, 1, 1, 1, 1, 1, 1, 1, 1, 1, 1, 1, 1
Record Sequence Number:, 
Earthquake Name:, 
Station Name:, 
User-Defined Maximum Number of Records:, 14
Pulse:, 1
Damping Ratio:, 0.05
Scaling Method:, Minimize MSE
Suite Average:, Arithmetic
Single-Period-Scaling Period (sec):, 
Component:, RotD50
Fault Type:, Strike Slip (SS)


 -- Summary of Metadata of Selected Records --
Result ID, Spectral Ordinate, Record Sequence Number, Mean Squared Error, Scale Factor, Tp-Pulse Period (sec), 5-75% Duration (sec), 5-95% Duration (sec), Arias Intensity (m/sec), Earthquake Name, Year, Station Name, Magnitude, Mechanism, Rjb (km), Rrup (km), Vs30 (m/sec), Lowest Useable Frequency (Hz), Initial-search Scale Factor, Horizontal-1 Acc. Filename, Horizontal-2 Acc. Filename, Vertical Acc. Filename
1, RotD50, 164, 0.0367, 2.468, -, 19.7, 36.4, 1.3, "Imperial Valley-06", 1979, "Cerro Prieto", 6.53, strike slip, 15.19, 15.19, 471.53, 0.1125, 2.5299, RSN164_IMPVALL.H_H-CPE147.AT2, RSN164_IMPVALL.H_H-CPE237.AT2 , RSN164_IMPVALL.H_H-CPEDWN.AT2  
2, RotD50, 850, 0.0438, 2.9009, -, 22.6, 31.7, 0.7, "Landers", 1992, "Desert Hot Springs", 7.28, strike slip, 21.78, 21.78, 359.0, 0.07, 2.9737, RSN850_LANDERS_DSP000.AT2, RSN850_LANDERS_DSP090.AT2 , RSN850_LANDERS_DSP-UP.AT2  
3, RotD50, 1633, 0.0845, 0.8715, -, 10.8, 29.1, 7.5, "Manjil_ Iran", 1990, "Abbar", 7.37, strike slip, 12.55, 12.55, 723.95, 0.13, 0.8933, RSN1633_MANJIL_ABBAR--L.AT2, RSN1633_MANJIL_ABBAR--T.AT2 , RSN1633_MANJIL_ABBAR--V.AT2  
4, RotD50, 1787, 0.0556, 1.5674, -, 7.6, 11.7, 1.9, "Hector Mine", 1999, "Hector", 7.13, strike slip, 10.35, 11.66, 726.0, 0.0375, 1.6067, RSN1787_HECTOR_HEC000.AT2, RSN1787_HECTOR_HEC090.AT2 , RSN1787_HECTOR_HECVER.AT2  
5, RotD50, 1794, 0.0868, 3.0221, -, 7.4, 14.6, 0.6, "Hector Mine", 1999, "Joshua Tree", 7.13, strike slip, 31.06, 31.06, 379.32, 0.0169, 3.0979, RSN1794_HECTOR_JOS090.AT2, RSN1794_HECTOR_JOS360.AT2 , RSN1794_HECTOR_JOS-UP.AT2  
6, RotD50, 2734, 0.0622, 1.3506, 2.436, 4.4, 7.4, 1.6, "Chi-Chi_ Taiwan-04", 1999, "CHY074", 6.2, strike slip, 6.02, 6.2, 553.43, 0.08, 1.3845, RSN2734_CHICHI.04_CHY074N.AT2, RSN2734_CHICHI.04_CHY074E.AT2 , RSN2734_CHICHI.04_CHY074V.AT2  
7, RotD50, 2739, 0.0852, 3.3907, -, 7.0, 11.9, 0.3, "Chi-Chi_ Taiwan-04", 1999, "CHY080", 6.2, strike slip, 12.44, 12.53, 496.21, 0.04, 3.4758, RSN2739_CHICHI.04_CHY080N.AT2, RSN2739_CHICHI.04_CHY080E.AT2 , RSN2739_CHICHI.04_CHY080V.AT2  
8, RotD50, 3752, 0.0603, 4.2416, -, 18.3, 27.3, 0.3, "Landers", 1992, "Forest Falls Post Office", 7.28, strike slip, 45.34, 45.34, 436.14, 0.125, 4.3481, RSN3752_LANDERS_FFP210.AT2, RSN3752_LANDERS_FFP300.AT2 , RSN3752_LANDERS_FFP-UP.AT2  
9, RotD50, 3756, 0.0763, 2.768, -, 23.0, 32.9, 1.0, "Landers", 1992, "Morongo Valley Hall (GEOS #58)", 7.28, strike slip, 40.67, 40.67, 368.2, 0.05, 2.8374, RSN3756_LANDERS_MVP000.AT2, RSN3756_LANDERS_MVP090.AT2 , RSN3756_LANDERS_MVP-UP.AT2  
10, RotD50, 3759, 0.0546, 4.1058, -, 23.2, 33.4, 0.6, "Landers", 1992, "Whitewater Trout Farm", 7.28, strike slip, 27.05, 27.05, 425.02, 0.375, 4.2088, RSN3759_LANDERS_WWT180.AT2, RSN3759_LANDERS_WWT270.AT2 , RSN3759_LANDERS_WWT-UP.AT2  
11, RotD50, 3943, 0.0363, 2.5221, -, 3.7, 9.9, 0.4, "Tottori_ Japan", 2000, "SMN015", 6.61, strike slip, 9.1, 9.12, 616.55, 0.075, 2.5853, RSN3943_TOTTORI_SMN015NS.AT2, RSN3943_TOTTORI_SMN015EW.AT2 , RSN3943_TOTTORI_SMN015UD.AT2  
12, RotD50, 6891, 0.0703, 4.0991, -, 15.4, 28.9, 0.4, "Darfield_ New Zealand", 2010, "CSHS", 7.0, strike slip, 43.6, 43.6, 638.39, 0.0375, 4.202, RSN6891_DARFIELD_CSHSN76W.AT2, RSN6891_DARFIELD_CSHSS14W.AT2 , RSN6891_DARFIELD_CSHSUP.AT2  
13, RotD50, 6948, 0.0343, 3.4841, -, 17.8, 23.0, 0.5, "Darfield_ New Zealand", 2010, "OXZ", 7.0, strike slip, 30.63, 30.63, 481.62, 0.1, 3.5716, RSN6948_DARFIELD_OXZE.AT2, RSN6948_DARFIELD_OXZN.AT2 , RSN6948_DARFIELD_OXZUP.AT2  
14, RotD50, 6971, 0.0728, 2.6799, -, 16.1, 22.7, 1.0, "Darfield_ New Zealand", 2010, "SPFS", 7.0, strike slip, 29.86, 29.86, 389.54, 0.0375, 2.7472, RSN6971_DARFIELD_SPFSN17E.AT2, RSN6971_DARFIELD_SPFSN73W.AT2 , RSN6971_DARFIELD_SPFSUP.AT2  

 These records were obtained from the NGA-West2 On-Line Ground-Motion Database Tool
 These records are UNSCALED, AS RECORDED
 Filename Extension: 
   ,AT2 = Acceleration
   ,VT2 = Velocity
   ,DT2 = Displacement
 The users of the NGA-West2 databases, flatfiles, models and reports are requested to acknowledge the Pacific Earthquake Engineering Research Center (PEER) in their work and publications.

 -- Scaled Spectra used in Search & Scaling --
Period (sec),Target pSa (g),Arithmetic Mean pSa (g),Arithmetic Mean + Sigma pSa (g),Arithmetic Mean - Sigma pSa (g),RSN-164 RotD50 pSa (g),RSN-850 RotD50 pSa (g),RSN-1633 RotD50 pSa (g),RSN-1787 RotD50 pSa (g),RSN-1794 RotD50 pSa (g),RSN-2734 RotD50 pSa (g),RSN-2739 RotD50 pSa (g),RSN-3752 RotD50 pSa (g),RSN-3756 RotD50 pSa (g),RSN-3759 RotD50 pSa (g),RSN-3943 RotD50 pSa (g),RSN-6891 RotD50 pSa (g),RSN-6948 RotD50 pSa (g),RSN-6971 RotD50 pSa (g)
0.01,0.55328,0.46442587,0.50934866,0.42346511,0.42633036,0.45077106,0.46047227,0.49467472,0.44284443,0.43947979,0.41195888,0.45849704,0.45095272,0.55424815,0.56016723,0.4435146,0.47881225,0.42923863
0.02,0.55921,0.46733076,0.51287281,0.42583276,0.4271406,0.45507981,0.4626832,0.49088991,0.44407774,0.44236191,0.41644069,0.46842287,0.45492367,0.56252003,0.56266105,0.44561665,0.48000069,0.42981186
0.022,0.56257821,0.47058135,0.51557974,0.42951031,0.42695871,0.45569625,0.48030469,0.49284164,0.44432586,0.44398146,0.41943738,0.46900312,0.4609302,0.55950476,0.56450593,0.44840571,0.48969706,0.43254619
0.025,0.56712766,0.47684479,0.5279373,0.43069689,0.4279797,0.45923393,0.52211119,0.49747065,0.44576134,0.44303425,0.41891352,0.47481669,0.46271666,0.58063753,0.56650996,0.4475453,0.49745519,0.43164118
0.029,0.57245593,0.48490752,0.54044092,0.43508049,0.43479177,0.45490952,0.53586063,0.50126142,0.4462754,0.44796826,0.4206187,0.48363927,0.48459677,0.59065272,0.57921888,0.44856229,0.5248496,0.4355
0.03,0.57368,0.4876816,0.5459389,0.43564095,0.43817831,0.45369026,0.54636757,0.50061847,0.44639628,0.44752593,0.4249642,0.48751611,0.48876591,0.5970766,0.59141002,0.45018228,0.51977495,0.4350755
0.032,0.57891543,0.49719791,0.56592733,0.43681538,0.44881424,0.45418429,0.54457494,0.50128916,0.44822525,0.45274951,0.4312363,0.49811423,0.49135149,0.6237148,0.64196298,0.45355833,0.528309,0.44268622
0.035,0.58626417,0.49694401,0.57252949,0.43133734,0.4581271,0.45514856,0.49260678,0.50647962,0.45129447,0.44732009,0.43837777,0.48044066,0.50152965,0.65398947,0.66478461,0.4489677,0.5099103,0.4482393
0.036,0.58859358,0.49745969,0.57566354,0.42987983,0.45488938,0.45565216,0.49417988,0.50703526,0.45007083,0.45025772,0.43895893,0.4846369,0.50112525,0.65718088,0.67510337,0.44891974,0.50080066,0.44562476
0.04,0.59738799,0.5055554,0.58895849,0.43396311,0.4690619,0.44912276,0.49033938,0.51591225,0.45112705,0.45429409,0.43879788,0.5457447,0.49783993,0.65633961,0.7020811,0.45502665,0.50056096,0.4515273
0.042,0.60150489,0.50741796,0.59065048,0.4359143,0.4708023,0.44806914,0.50562305,0.52014785,0.4495332,0.45553898,0.44131275,0.55610911,0.49578497,0.6568479,0.69808187,0.4567569,0.50473705,0.44450643
0.044,0.60545666,0.50850278,0.58898673,0.43901681,0.49464775,0.45553554,0.51937127,0.51907308,0.44669456,0.45041764,0.44376524,0.52962738,0.4872604,0.65520642,0.69598074,0.4574681,0.51333765,0.45065311
0.045,0.60737496,0.50899174,0.59140987,0.4380593,0.48676064,0.45786847,0.52235119,0.52268532,0.44746338,0.45073342,0.44460308,0.50931255,0.48589302,0.65874435,0.70365336,0.46006696,0.52498618,0.45076245
0.046,0.60925698,0.51370957,0.60171635,0.43857462,0.49976359,0.45825603,0.53628904,0.53338582,0.45345465,0.4506929,0.44143753,0.49684811,0.48683773,0.66446163,0.72461345,0.46389556,0.53379583,0.44820205
0.048,0.61291789,0.52844662,0.61859155,0.45143815,0.53199765,0.45939464,0.588363,0.56323953,0.45886962,0.45081891,0.46524152,0.51441776,0.49333447,0.67468088,0.72417411,0.46863418,0.55955269,0.44553365
0.05,0.61645,0.54444145,0.63934831,0.46362287,0.55155181,0.46748997,0.628831,0.58917018,0.45830418,0.45783181,0.48257811,0.54515172,0.50320401,0.68997444,0.72602429,0.47024555,0.60096275,0.45086053
0.055,0.64251728,0.56608321,0.69337289,0.46216142,0.57889584,0.48266355,0.78870941,0.57005162,0.45522166,0.49194305,0.45714489,0.5590511,0.50540013,0.6668828,0.80171035,0.46779221,0.64629665,0.45340164
0.06,0.66727617,0.58960641,0.73622739,0.47218526,0.63027314,0.47734992,0.87256546,0.55009215,0.46726012,0.53188011,0.47727135,0.56155153,0.51727424,0.73807018,0.79245236,0.48512956,0.70468562,0.44863405
0.065,0.6908938,0.62038454,0.78098704,0.49280841,0.73171898,0.51581504,0.99475151,0.60410613,0.46374,0.55499718,0.50932319,0.58758408,0.51594699,0.75430067,0.7198866,0.50184711,0.73139191,0.49997419
0.067,0.70005236,0.63504039,0.79874055,0.50489022,0.7276382,0.52535821,1.0022767,0.62146951,0.46422776,0.58256081,0.51822036,0.60662685,0.5306367,0.78257501,0.74749738,0.50368107,0.76605912,0.51173773
0.07,0.71350491,0.6472295,0.81295338,0.5152891,0.7247186,0.5178863,0.97601044,0.64212115,0.4658337,0.59682608,0.5469873,0.64202701,0.53022787,0.84023472,0.76617551,0.49355658,0.79970303,0.51890465
0.075,0.73522,0.69566245,0.88730054,0.54541413,0.90767654,0.57067299,1.01407822,0.57870526,0.48757575,0.63436928,0.6387485,0.74394475,0.55351107,0.99884982,0.75362069,0.51419702,0.77956399,0.56376045
0.08,0.75968303,0.73308296,0.95521192,0.56260879,0.89098793,0.63498622,1.25721894,0.57906294,0.49708805,0.67568143,0.76677685,0.69467108,0.58693285,0.98474406,0.80243342,0.57978788,0.71842882,0.59436091
0.085,0.78340344,0.79087263,1.05213442,0.59448631,0.89799522,0.68263393,1.40542376,0.65689721,0.50651573,0.69737776,0.88366916,0.79983705,0.57091174,1.10169058,0.80622559,0.63271115,0.80074444,0.62958345
0.09,0.80644557,0.82847748,1.0623808,0.64607241,1.09345141,0.70189984,1.26458203,0.70251602,0.52468236,0.7468337,0.88158965,0.88437219,0.58977281,1.13208473,0.86754699,0.67087831,0.85442703,0.68404758
0.095,0.82886498,0.83012735,1.02724071,0.67083733,1.10383833,0.7746771,1.08707647,0.68706707,0.51636378,0.78901849,0.80959989,0.88233748,0.61077048,1.14369049,0.91457234,0.72125519,0.8192717,0.76224406
0.1,0.85071,0.84984432,1.05379751,0.68536447,1.12543324,0.78653232,1.02359909,0.66129754,0.52920097,0.84081089,0.81750359,0.96977601,0.61774553,1.20532868,0.92767647,0.76972883,0.87553466,0.74765267
0.11,0.91934013,0.93437286,1.18768609,0.73508704,1.10657209,0.82823399,1.2271635,0.7192004,0.56048434,0.9400742,0.95957888,1.02071112,0.7073843,1.40571377,1.07349146,0.77917204,1.0480843,0.70535567
0.12,0.98681798,0.94596694,1.21016456,0.73944773,1.13641814,0.79352761,1.33216407,0.81374336,0.5818577,1.03349884,0.80686564,1.04345895,0.7483638,1.45476492,1.004732,0.80376815,0.95213315,0.73824077
0.13,1.05325681,0.97345151,1.24281625,0.76246817,1.09564864,0.77866965,1.43420685,0.84605444,0.60926101,1.07747903,0.92199072,1.07501705,0.82079566,1.47367238,0.9649997,0.75426726,0.98215111,0.79410758
0.133,1.07300037,0.98298483,1.26660075,0.76287589,1.08525432,0.79765447,1.51864844,0.83026614,0.60799688,1.02749338,0.99042941,1.10405224,0.87517664,1.477726,0.99393934,0.71513967,0.9057115,0.8322992
0.14,1.11875094,0.9964689,1.28737531,0.77129821,1.04919246,0.80584378,1.48219114,0.76331168,0.61401233,1.0068134,1.04464178,1.28511698,0.99176786,1.46194057,1.03398488,0.68522164,0.85397549,0.87255061
0.15,1.18338,1.04647005,1.2764844,0.85790282,1.14844132,0.89715012,1.4399795,0.91869011,0.6652656,1.10483642,1.17034174,1.28015385,1.09339617,1.22571626,1.13816418,0.72217545,0.96979217,0.87647778
0.16,1.21056468,1.06628269,1.27803748,0.88961302,1.09071469,0.98189631,1.29520045,0.96246878,0.75335077,1.10117795,1.37247969,1.07666789,0.9676097,1.21611945,1.35259362,0.71502899,1.11305551,0.92959391
0.17,1.23666932,1.09294916,1.30298293,0.91677169,1.17626685,1.05196005,1.38684827,0.9765436,0.81155724,1.13515345,1.31540185,0.97157658,0.9107414,1.23822571,1.39016704,0.75061246,1.13278655,1.05344721
0.18,1.26179679,1.10048762,1.29884032,0.93242639,1.16509488,1.13289297,1.47636272,0.9513932,0.9358427,0.95439079,1.15825936,1.11380798,0.99160759,1.17815715,1.42560856,0.7564972,1.11828173,1.04862978
0.19,1.28603505,1.12724196,1.33893176,0.94902106,1.06719032,1.28721119,1.36917388,0.96306753,1.05184131,1.03872783,1.03256312,1.33359025,0.97355727,1.15067604,1.60593973,0.87401483,1.06865083,0.96518332
0.2,1.30946,1.14653013,1.38606334,0.94839196,1.0803453,1.35281592,1.37213689,1.06852024,1.076749,1.10981446,0.99786553,1.25092907,0.96726896,1.28622332,1.71075281,0.95222737,0.87827737,0.94749554
0.22,1.29468515,1.17845167,1.47578097,0.94102605,1.12981758,1.0774267,1.1391567,1.27645198,0.98346675,1.19456627,0.86648921,1.12474755,0.90898345,1.6098503,1.87301014,1.18553853,0.89894321,1.22987504
0.24,1.28134238,1.22732285,1.47884409,1.01858025,1.10576926,1.14862789,1.04056497,1.07520804,1.22402946,1.30908824,1.07747823,1.27492775,0.9097297,1.53016276,1.64612524,1.36681266,0.8942877,1.579708
0.25,1.27513,1.20160672,1.42995599,1.00972248,1.14663477,1.21277547,1.01614274,1.02474956,1.21118109,1.2491064,1.05433779,1.22121564,0.90485749,1.37209455,1.62079265,1.35519076,0.89909302,1.53432211
0.26,1.25711114,1.20230108,1.4154835,1.02122553,1.13836191,1.17702069,1.05645283,1.07519722,1.23816283,1.18684563,0.98526742,1.16621408,1.01860737,1.54878856,1.5795514,1.35580973,0.90538051,1.40055496
0.28,1.22375648,1.162311,1.39138504,0.97095112,1.23361168,1.11183341,1.0544528,1.11030957,1.14727588,1.13497341,0.94923186,1.03987902,1.00672606,1.35671435,1.73871617,1.3423801,0.84522298,1.20102671
0.29,1.20827271,1.15170431,1.35874419,0.97621231,1.37119737,1.10495706,0.99040982,1.11184845,1.2078284,1.11039455,0.98720995,0.92968163,1.06571297,1.33213561,1.63095202,1.26370927,0.89624369,1.1215795
0.3,1.1935,1.1299776,1.34635044,0.94837818,1.49708887,1.09670422,0.97909895,1.1712242,1.28827707,1.01654459,0.95233095,0.86393859,1.02276489,1.29986718,1.49509942,1.21806772,0.89441696,1.02426282
0.32,1.15885091,1.11936979,1.33435419,0.93902259,1.32832097,1.16846964,0.97660566,1.10909279,1.52761101,1.10672906,0.9085307,0.69961808,1.02820703,1.18958349,1.27505587,1.29487467,0.9914238,1.06705427
0.34,1.1272199,1.1344251,1.3576345,0.94791367,1.23240139,1.40202345,1.09060159,1.03601245,1.62236712,1.14390232,0.96421056,0.74204238,1.21464037,0.99301306,1.07497998,1.16788023,0.96905492,1.22882156
0.35,1.11240216,1.13456442,1.40963606,0.91316934,1.16760381,1.47182378,1.0974418,0.97558623,1.76682496,1.19095183,0.95381573,0.73731933,1.29818044,0.94137159,1.00426264,1.12984711,0.96034596,1.18852673
0.36,1.09818854,1.11772891,1.41315384,0.88406363,1.07536397,1.44635975,1.05715785,1.02363012,1.83136662,1.25077727,0.8893055,0.77042139,1.29591401,0.97433266,0.89207833,1.03653289,0.94861765,1.15634672
0.38,1.07141569,1.05857683,1.34746982,0.83162153,1.06311498,1.27402127,0.9227816,0.98327951,1.57525652,1.33997038,0.73992124,0.73999537,1.47557797,0.82320565,0.82346186,0.99776726,1.07532819,0.98639386
0.4,1.04662,1.01425049,1.26353226,0.81414942,1.14416977,1.01253212,0.92135761,0.95385716,1.25692329,1.37257215,0.75695945,0.69490437,1.48100627,0.76261772,0.86752329,1.01702382,1.03249416,0.92556571
0.42,1.02846199,0.98631199,1.23249861,0.78930016,1.18564733,0.88502599,0.79348404,1.00263632,1.18349038,1.39107855,0.72503238,0.70555551,1.37146733,0.78749043,0.79632121,0.99177349,0.90856989,1.08079505
0.44,1.01144231,0.98605242,1.23018854,0.79036615,1.13140571,0.88698383,0.7257563,1.21832796,1.14740614,1.41089237,0.70448108,0.6887099,1.25849331,0.83102303,0.85509331,0.98129197,0.87336578,1.09150323
0.45,1.00332164,0.96977484,1.21419116,0.77455945,1.03494245,0.84821035,0.70374641,1.27528129,1.15150196,1.36658478,0.67598403,0.7083219,1.17240725,0.78549585,0.90530049,1.03679975,0.79355526,1.118716
0.46,0.99544253,0.95887598,1.2141447,0.75727642,1.01720619,0.79400452,0.66153956,1.34463105,1.16851657,1.30056749,0.66116469,0.73703684,1.10029399,0.7430907,0.93766862,1.09052153,0.75344757,1.11457444
0.48,0.98036103,0.99811047,1.28695034,0.77409709,0.98905612,0.84159682,0.60411038,1.50300604,1.28273518,1.31911428,0.76564198,0.71842078,1.1382085,0.73998716,0.96609024,1.16982199,0.84268827,1.09306884
0.5,0.96611,1.05198292,1.37517359,0.8047479,0.9297764,0.87344492,0.63592001,1.59846467,1.45071448,1.32826605,0.86225051,0.7855678,1.19993793,0.77435527,0.94168929,1.34351392,0.84381434,1.16004528
0.55,0.9258685,1.07054827,1.35879547,0.84344821,0.94656274,0.77597324,0.59865617,1.24918512,1.15710883,1.29757462,0.90785562,0.97374405,1.66871178,1.06967589,0.85273039,1.16357407,1.0418003,1.28452301
0.6,0.89059629,0.99546287,1.36419164,0.72639818,0.98396718,0.78589092,0.52864899,0.80384787,0.93316786,1.24894,1.04501102,0.92752307,1.91891733,0.92144796,0.67348143,0.94523751,1.02996816,1.19043082
0.65,0.85933685,0.95602784,1.27675885,0.71586676,0.97133097,0.86529506,0.56104513,0.63184164,0.96675949,1.1463174,0.978188,0.91846169,1.64186895,0.90479662,0.54259628,1.11820881,0.88525924,1.25242045
0.667,0.84949005,0.92740352,1.21861838,0.70578067,0.89063699,0.86528491,0.56444806,0.61359064,0.95812994,1.09900289,1.01603758,0.86176645,1.50233388,0.97450469,0.50287962,1.02117749,0.87713283,1.23672332
0.7,0.83137416,0.87166941,1.11181934,0.6833912,0.7739162,0.84664733,0.58715531,0.57835494,0.90580322,0.99851456,1.0750983,0.80645144,1.24383461,1.03506635,0.49307208,0.92582067,0.7932382,1.14039848
0.75,0.80616,0.8187393,1.06603522,0.62881041,0.81681135,0.69010584,0.55885781,0.50244779,0.93770249,0.88628015,0.95583082,0.71593349,0.83466881,0.93341831,0.47286179,0.96966023,0.8547974,1.33297393
0.8,0.79128015,0.80279486,1.06137466,0.60721215,0.80448191,0.67931585,0.50422581,0.51864283,1.06334124,0.93391044,0.99187553,0.68540992,0.73785486,0.94161711,0.4450543,0.80831165,0.84200781,1.2830788
0.85,0.74967574,0.76736239,1.01115935,0.58234643,0.73773982,0.84602479,0.42990065,0.49147173,0.93321349,0.90106448,1.10254152,0.64097848,0.79462932,0.81179409,0.44958821,0.72842952,0.72175722,1.15394014
0.9,0.69579954,0.73778601,1.00778224,0.54012482,0.58557982,0.86001392,0.38634807,0.51217164,0.97003089,0.84537711,1.2851386,0.59945044,0.77675255,0.68232663,0.4507529,0.66016355,0.75087697,0.96402104
0.95,0.64840518,0.68851319,0.91307785,0.51917852,0.49204924,0.7905353,0.41590781,0.49414149,0.93805577,0.71085291,1.15033396,0.62906588,0.69368941,0.58913154,0.49832982,0.61829445,0.74640264,0.87239437
1.0,0.60643,0.6543753,0.83200018,0.5146718,0.5235856,0.78969375,0.34809728,0.56480709,0.9080589,0.62851995,0.80636687,0.58160975,0.65638746,0.48640902,0.53411737,0.74413376,0.68306339,0.90640397
1.1,0.52495045,0.60215768,0.79780186,0.45449114,0.70459607,0.70498846,0.30413684,0.71488848,0.88887202,0.44693719,0.47426041,0.55589575,0.65677858,0.40073421,0.47501008,0.78973144,0.49303904,0.82033896
1.2,0.46016339,0.51170216,0.71547749,0.36596414,0.60019658,0.52211034,0.25247875,0.74621084,0.80775607,0.37643214,0.32603868,0.51451787,0.69168567,0.28133326,0.41284808,0.61182313,0.37589038,0.64450849
1.3,0.40764997,0.44933931,0.62376384,0.32368951,0.40511132,0.53279183,0.21372486,0.69992479,0.65136645,0.37899146,0.28774953,0.38099668,0.61497976,0.23992606,0.40213083,0.47929196,0.40093125,0.6028335
