
 PEER Ground Motion Database, Time Series Search Report -- NGA-West2 -- 2022-05-16


 -- Summary of PEER Ground Motion Database Search Criteria --
Magnitude Min:, 6.0
Magnitude Max:, 7.5
Rrup Min (km):, 0.0
Rrup Max (km):, 50.0
Rjb Min (km):, -1.0e-06
Rjb Max (km):, 99999
Vs30 Min (m/sec):, 330.0
Vs30 Max (m/sec):, 1030.0
D9-95 Min (sec):, -1.0e-06
D9-95 Max (sec):, 99999
Scale Factor Min:, 0.25
Scale Factor Max:, 5.5
Period Array:, 0.010, 0.013, 0.016, 0.020, 0.026, 0.033, 0.042, 0.053, 0.067, 0.085, 0.108, 0.137, 0.174, 0.221, 0.281, 0.356, 0.452, 0.574, 0.728, 0.924, 1.172, 1.487, 1.887, 2.395, 3.039, 3.857, 4.894, 6.210, 7.880, 10.0
Weight Array:, 1, 1, 1, 1, 1, 1, 1, 1, 1, 1, 1, 1, 1, 1, 1, 1, 1, 1, 1, 1, 1, 1, 1, 1, 1, 1, 1, 1, 1, 1
Record Sequence Number:, 164,848,850,864,1111,1787,1794,2709,2734,3753,3756,3943,6948,6971
Earthquake Name:, 
Station Name:, 
User-Defined Maximum Number of Records:, 14
Pulse:, 1
Damping Ratio:, 0.05
Scaling Method:, Minimize MSE
Suite Average:, Arithmetic
Single-Period-Scaling Period (sec):, 
Component:, RotD50
Fault Type:, All Types


 -- Summary of Metadata of Selected Records --
Result ID, Spectral Ordinate, Record Sequence Number, Mean Squared Error, Scale Factor, Tp-Pulse Period (sec), 5-75% Duration (sec), 5-95% Duration (sec), Arias Intensity (m/sec), Earthquake Name, Year, Station Name, Magnitude, Mechanism, Rjb (km), Rrup (km), Vs30 (m/sec), Lowest Useable Frequency (Hz), Initial-search Scale Factor, Horizontal-1 Acc. Filename, Horizontal-2 Acc. Filename, Vertical Acc. Filename
1, RotD50, 164, 0.0391, 3.117, -, 19.7, 36.4, 1.3, "Imperial Valley-06", 1979, "Cerro Prieto", 6.53, strike slip, 15.19, 15.19, 471.53, 0.1125, 3.2024, RSN164_IMPVALL.H_H-CPE147.AT2, RSN164_IMPVALL.H_H-CPE237.AT2 , RSN164_IMPVALL.H_H-CPEDWN.AT2  
2, RotD50, 848, 0.0906, 1.8194, -, 6.1, 10.6, 2.2, "Landers", 1992, "Coolwater", 7.28, strike slip, 19.74, 19.74, 352.98, 0.1, 1.8693, RSN848_LANDERS_CLW-LN.AT2, RSN848_LANDERS_CLW-TR.AT2 , RSN848_LANDERS_CLW-UP.AT2  
3, RotD50, 850, 0.0403, 3.6638, -, 22.6, 31.7, 0.7, "Landers", 1992, "Desert Hot Springs", 7.28, strike slip, 21.78, 21.78, 359.0, 0.07, 3.7642, RSN850_LANDERS_DSP000.AT2, RSN850_LANDERS_DSP090.AT2 , RSN850_LANDERS_DSP-UP.AT2  
4, RotD50, 864, 0.1044, 2.1481, -, 21.7, 27.1, 2.3, "Landers", 1992, "Joshua Tree", 7.28, strike slip, 11.03, 11.03, 379.32, 0.07, 2.207, RSN864_LANDERS_JOS000.AT2, RSN864_LANDERS_JOS090.AT2 , RSN864_LANDERS_JOS-UP.AT2  
5, RotD50, 1111, 0.082, 1.5403, -, 4.5, 11.2, 3.4, "Kobe_ Japan", 1995, "Nishi-Akashi", 6.9, strike slip, 7.08, 7.08, 609.0, 0.125, 1.5825, RSN1111_KOBE_NIS000.AT2, RSN1111_KOBE_NIS090.AT2 , RSN1111_KOBE_NIS-UP.AT2  
6, RotD50, 1787, 0.0571, 1.9796, -, 7.6, 11.7, 1.9, "Hector Mine", 1999, "Hector", 7.13, strike slip, 10.35, 11.66, 726.0, 0.0375, 2.0338, RSN1787_HECTOR_HEC000.AT2, RSN1787_HECTOR_HEC090.AT2 , RSN1787_HECTOR_HECVER.AT2  
7, RotD50, 1794, 0.0699, 3.8168, -, 7.4, 14.6, 0.6, "Hector Mine", 1999, "Joshua Tree", 7.13, strike slip, 31.06, 31.06, 379.32, 0.0169, 3.9214, RSN1794_HECTOR_JOS090.AT2, RSN1794_HECTOR_JOS360.AT2 , RSN1794_HECTOR_JOS-UP.AT2  
8, RotD50, 2709, 0.0857, 4.5066, -, 4.3, 12.1, 0.3, "Chi-Chi_ Taiwan-04", 1999, "CHY035", 6.2, strike slip, 25.01, 25.06, 573.04, 0.05, 4.6301, RSN2709_CHICHI.04_CHY035N.AT2, RSN2709_CHICHI.04_CHY035E.AT2 , RSN2709_CHICHI.04_CHY035V.AT2  
9, RotD50, 2734, 0.0469, 1.7058, 2.436, 4.4, 7.4, 1.6, "Chi-Chi_ Taiwan-04", 1999, "CHY074", 6.2, strike slip, 6.02, 6.2, 553.43, 0.08, 1.7526, RSN2734_CHICHI.04_CHY074N.AT2, RSN2734_CHICHI.04_CHY074E.AT2 , RSN2734_CHICHI.04_CHY074V.AT2  
10, RotD50, 3753, 0.096, 3.393, -, 22.7, 29.6, 1.2, "Landers", 1992, "Fun Valley", 7.28, strike slip, 25.02, 25.02, 388.63, 0.0625, 3.486, RSN3753_LANDERS_FVR045.AT2, RSN3753_LANDERS_FVR135.AT2 , RSN3753_LANDERS_FVR-UP.AT2  
11, RotD50, 3756, 0.0582, 3.4959, -, 23.0, 32.9, 1.0, "Landers", 1992, "Morongo Valley Hall (GEOS #58)", 7.28, strike slip, 40.67, 40.67, 368.2, 0.05, 3.5917, RSN3756_LANDERS_MVP000.AT2, RSN3756_LANDERS_MVP090.AT2 , RSN3756_LANDERS_MVP-UP.AT2  
12, RotD50, 3943, 0.0504, 3.1853, -, 3.7, 9.9, 0.4, "Tottori_ Japan", 2000, "SMN015", 6.61, strike slip, 9.1, 9.12, 616.55, 0.075, 3.2726, RSN3943_TOTTORI_SMN015NS.AT2, RSN3943_TOTTORI_SMN015EW.AT2 , RSN3943_TOTTORI_SMN015UD.AT2  
13, RotD50, 6948, 0.0436, 4.4004, -, 17.8, 23.0, 0.5, "Darfield_ New Zealand", 2010, "OXZ", 7.0, strike slip, 30.63, 30.63, 481.62, 0.1, 4.521, RSN6948_DARFIELD_OXZE.AT2, RSN6948_DARFIELD_OXZN.AT2 , RSN6948_DARFIELD_OXZUP.AT2  
14, RotD50, 6971, 0.0541, 3.3847, -, 16.1, 22.7, 1.0, "Darfield_ New Zealand", 2010, "SPFS", 7.0, strike slip, 29.86, 29.86, 389.54, 0.0375, 3.4774, RSN6971_DARFIELD_SPFSN17E.AT2, RSN6971_DARFIELD_SPFSN73W.AT2 , RSN6971_DARFIELD_SPFSUP.AT2  

 These records were obtained from the NGA-West2 On-Line Ground-Motion Database Tool
 These records are UNSCALED, AS RECORDED
 Filename Extension: 
   ,AT2 = Acceleration
   ,VT2 = Velocity
   ,DT2 = Displacement
 The users of the NGA-West2 databases, flatfiles, models and reports are requested to acknowledge the Pacific Earthquake Engineering Research Center (PEER) in their work and publications.

 -- Scaled Spectra used in Search & Scaling --
Period (sec),Target pSa (g),Arithmetic Mean pSa (g),Arithmetic Mean + Sigma pSa (g),Arithmetic Mean - Sigma pSa (g),RSN-164 RotD50 pSa (g),RSN-848 RotD50 pSa (g),RSN-850 RotD50 pSa (g),RSN-864 RotD50 pSa (g),RSN-1111 RotD50 pSa (g),RSN-1787 RotD50 pSa (g),RSN-1794 RotD50 pSa (g),RSN-2709 RotD50 pSa (g),RSN-2734 RotD50 pSa (g),RSN-3753 RotD50 pSa (g),RSN-3756 RotD50 pSa (g),RSN-3943 RotD50 pSa (g),RSN-6948 RotD50 pSa (g),RSN-6971 RotD50 pSa (g)
0.01,0.69677,0.60792929,0.67632733,0.54644845,0.53844074,0.63931346,0.56930851,0.59265182,0.73536096,0.62475734,0.55929744,0.55826739,0.55504801,0.71471695,0.56953793,0.70747215,0.60472358,0.54211377
0.02,0.70206,0.60998498,0.67736581,0.54930685,0.53946403,0.64466471,0.57475031,0.59677793,0.72725462,0.61997725,0.56085507,0.56156578,0.55868803,0.72155485,0.57455311,0.71062175,0.60622454,0.54283775
0.022,0.70514541,0.61219823,0.67893806,0.55201895,0.53923431,0.64481463,0.57552886,0.59705525,0.72787845,0.62244222,0.56116843,0.56236661,0.56073346,0.71970024,0.58213916,0.71295178,0.61847071,0.54629111
0.025,0.70930497,0.61550718,0.68354968,0.55423783,0.5405238,0.66129451,0.57999682,0.59523966,0.72898424,0.62828851,0.5629814,0.56490654,0.55953718,0.72205261,0.58439539,0.7154828,0.62826898,0.54514811
0.029,0.71416518,0.62320559,0.69286997,0.56054559,0.54912721,0.66325675,0.57453524,0.59524997,0.73034895,0.63307611,0.56363064,0.56767991,0.56576866,0.72575301,0.61202922,0.73153373,0.66286718,0.55002168
0.03,0.71528,0.62425467,0.69531403,0.56045741,0.55340429,0.66170916,0.57299536,0.59541924,0.73055089,0.63226409,0.56378331,0.56874978,0.56521001,0.72531022,0.61729471,0.74693073,0.65645807,0.54948555
0.032,0.72000935,0.63315341,0.7127232,0.56246694,0.56683711,0.66411242,0.5736193,0.59601878,0.73135446,0.63311115,0.56609323,0.57619517,0.57180722,0.72732736,0.6205602,0.81077739,0.66723629,0.55909763
0.035,0.72662797,0.63684609,0.71982766,0.56343062,0.57859893,0.65761293,0.57483714,0.59633026,0.73267389,0.63966652,0.56996955,0.58875737,0.56495005,0.72932312,0.63341488,0.83960033,0.64399935,0.56611098
0.036,0.72872117,0.63582636,0.72182168,0.56007622,0.5745098,0.65696977,0.57547317,0.59648342,0.73421605,0.64036828,0.56842414,0.58213625,0.56866017,0.72348818,0.63290413,0.85263258,0.63249419,0.56280891
0.04,0.73660345,0.64169558,0.73700264,0.55871336,0.59240921,0.67325424,0.56722675,0.59368936,0.74302462,0.65157962,0.5697581,0.56819592,0.57375798,0.73292783,0.62875488,0.88670454,0.63219145,0.57026361
0.042,0.74028239,0.64320019,0.73869287,0.56005208,0.59460728,0.68615497,0.56589607,0.59601878,0.74962823,0.65692903,0.56774513,0.57323477,0.57533022,0.73258277,0.62615955,0.88165364,0.63746571,0.56139649
0.044,0.74380726,0.64931242,0.74435671,0.566404,0.62472328,0.69757888,0.57532588,0.59929315,0.75977194,0.65557163,0.56416003,0.58804082,0.56886214,0.74516535,0.6153933,0.87899999,0.64832798,0.56915953
0.045,0.74551606,0.65157662,0.74925659,0.56663111,0.61476212,0.69283694,0.57827229,0.59930626,0.76383759,0.66013377,0.56513102,0.5928647,0.56926096,0.75097313,0.61366634,0.88869024,0.66303967,0.56929763
0.046,0.7471911,0.65797856,0.76150876,0.56852372,0.63118441,0.69552367,0.57876177,0.59867965,0.76706361,0.67364814,0.57269779,0.59750337,0.56920979,0.75717621,0.61485948,0.91516212,0.67416596,0.56606393
0.048,0.75044532,0.66937502,0.77446097,0.57854809,0.67189492,0.70226041,0.5801998,0.59849341,0.77299519,0.71135236,0.57953671,0.60866356,0.56936894,0.76942322,0.62306465,0.91460725,0.706696,0.56269383
0.05,0.75358,0.68099576,0.78851839,0.58813494,0.69659116,0.70017445,0.59042391,0.59930927,0.77890459,0.74410189,0.57882258,0.61291556,0.57822599,0.77358066,0.63552954,0.91694397,0.7589955,0.56942151
0.055,0.78188015,0.69938649,0.82783919,0.59086531,0.73112574,0.72953668,0.60958763,0.60176521,0.78263999,0.7199558,0.57492946,0.60507359,0.62130732,0.77577185,0.63830316,1.01253288,0.81625067,0.57263084
0.06,0.80864317,0.71786473,0.8476153,0.607976,0.79601352,0.75916273,0.6028767,0.60806241,0.77452287,0.69474766,0.59013363,0.66144013,0.67174648,0.78065641,0.65329976,1.00084036,0.88999396,0.56660954
0.065,0.83407099,0.74085619,0.86091316,0.63754153,0.92413616,0.72934164,0.65145683,0.60611407,0.80645826,0.76296548,0.58568783,0.7193957,0.70094254,0.76949888,0.65162349,0.90919228,0.92372309,0.63145039
0.067,0.84390567,0.75327743,0.88068933,0.64429858,0.91898228,0.70697287,0.66350954,0.60416981,0.8119262,0.78489484,0.58630386,0.7322274,0.73575447,0.77308901,0.67017609,0.94406374,0.96750659,0.64630733
0.07,0.85832577,0.76498435,0.89977458,0.6503863,0.91529492,0.75645235,0.65407276,0.6161606,0.79286703,0.81097715,0.5883321,0.72665046,0.75377102,0.79253256,0.66965975,0.96765359,1.0099977,0.65535891
0.075,0.88154,0.79597861,0.95322844,0.66466957,1.14636458,0.74940485,0.72074056,0.61496989,0.85050186,0.73088504,0.61579158,0.71758314,0.8011868,0.84883625,0.69906564,0.95179728,0.98456279,0.71201026
0.08,0.90926714,0.81565277,0.96268597,0.69107629,1.12528743,0.80608793,0.80196598,0.60120347,0.87417565,0.73133678,0.62780529,0.72889025,0.85336264,0.85629236,0.74127621,1.0134461,0.90735114,0.7506576
0.085,0.93610666,0.85173632,1.00649392,0.72077412,1.1341374,0.85805891,0.86214341,0.61435145,0.90169682,0.82963882,0.63971213,0.72051695,0.88076437,0.93755525,0.7210421,1.01823548,1.01131297,0.79514246
0.09,0.96213682,0.90866493,1.11552164,0.74016669,1.38099192,0.86209018,0.88647561,0.61763399,0.96027463,0.88725383,0.66265596,0.78225944,0.94322553,0.95486156,0.74486298,1.09568232,1.07911226,0.86392881
0.095,0.98742506,0.92989764,1.14889567,0.75264417,1.39411023,0.86184984,0.97839081,0.6152949,0.97382936,0.86774232,0.65214988,0.7374037,0.99650349,1.01743584,0.77138233,1.15507373,1.03471228,0.9626883
0.1,1.01203,0.94441788,1.1672803,0.76410535,1.42138388,0.86280976,0.99336354,0.63557291,0.95547056,0.83519629,0.66836282,0.80195517,1.06191553,0.98397413,0.78019158,1.1716238,1.10577047,0.94425987
0.11,1.1019728,1.01261164,1.27293006,0.8055292,1.39756288,0.80183342,1.04603134,0.69639984,1.00527939,0.90832563,0.70787264,0.78385613,1.18728171,1.17839949,0.8934023,1.35578318,1.3236948,0.8908402
0.12,1.19104639,1.03002077,1.26216883,0.84057122,1.43525743,0.86080259,1.00219836,0.69723116,1.07789682,1.02773017,0.73486647,0.83846464,1.30527386,1.0915843,0.94515801,1.26894231,1.20251176,0.93237296
0.13,1.27933077,1.09828324,1.30215921,0.92632764,1.38376694,1.07928568,0.98343326,0.74832905,1.20862765,1.06853796,0.76947592,1.01232867,1.36081934,1.26260784,1.03663698,1.21876177,1.24042343,1.00293084
0.133,1.3056725,1.10065996,1.28901519,0.93982783,1.37063927,1.12112763,1.00741044,0.77587263,1.17734782,1.04859788,0.76787936,0.99240716,1.29768916,1.29458987,1.10531831,1.25531156,1.1438828,1.05116556
0.14,1.36689298,1.10358916,1.29523697,0.94029823,1.32509436,1.0442014,1.01775326,0.79655642,1.16577578,0.96403668,0.77547667,1.01778528,1.27157105,1.33299686,1.25256905,1.30588771,1.07854198,1.10200172
0.15,1.45379,1.17395962,1.41376132,0.974833,1.45044229,0.94741009,1.13307007,0.74763779,1.18399826,1.16027434,0.8402078,1.02337574,1.39537079,1.40348666,1.38092214,1.43746261,1.2248145,1.10696159
0.16,1.49426867,1.23601547,1.49257741,1.02355445,1.37753553,1.00896483,1.24010162,0.78241386,1.2307026,1.21556532,0.95145638,1.05900237,1.39075027,1.53758933,1.22205811,1.7082797,1.40575123,1.17404546
0.17,1.53331858,1.30163283,1.54659846,1.09546729,1.48558499,1.19453347,1.32858973,0.83480062,1.30920786,1.23334133,1.02496917,1.14314681,1.43366016,1.56791761,1.15023539,1.75573365,1.43067086,1.33046797
0.18,1.57106999,1.37181091,1.61587232,1.16461254,1.47147517,1.40850151,1.43080526,0.97061336,1.44842379,1.20157723,1.18193747,1.2589827,1.20536308,1.83807597,1.25236663,1.80049508,1.41235176,1.32438371
0.19,1.60763482,1.43260105,1.76881166,1.16029638,1.34782505,1.37966364,1.62570392,1.03159237,1.65053549,1.21632152,1.32843978,1.22800736,1.31187788,2.10996746,1.22956969,2.02824721,1.34966963,1.21899368
0.2,1.64311,1.47637539,1.92242953,1.13381753,1.36443934,1.3770788,1.70856045,0.95752145,1.94217459,1.3495047,1.35989733,1.20250575,1.40165788,2.31777581,1.22162777,2.16062257,1.10923443,1.19665462
0.22,1.63617523,1.53523429,1.96099569,1.20191204,1.42692114,1.47192897,1.36075324,1.13609975,2.26057657,1.61211541,1.24208503,1.37820712,1.50869653,1.89370818,1.14801516,2.36554805,1.13533467,1.5532903
0.24,1.62986984,1.58003359,1.91936463,1.30069404,1.39654894,1.62182985,1.45067792,1.34008683,2.13289263,1.35795116,1.54590755,1.50090389,1.65333389,1.76780739,1.14895765,2.07900015,1.12945492,1.99511742
0.25,1.62692,1.55334723,1.85445229,1.30113222,1.44816068,1.58951617,1.53169414,1.38518632,1.94477926,1.29422382,1.52968049,1.41785996,1.57757886,1.76505092,1.14280421,2.04700595,1.13552389,1.9377966
0.26,1.60924974,1.54824564,1.82346027,1.31456911,1.43771235,1.71984798,1.48653707,1.30678007,1.87811929,1.3579375,1.5637575,1.33577054,1.49894563,1.89632689,1.28646643,1.99491965,1.14346476,1.76885323
0.28,1.57638382,1.56474904,1.98331198,1.23452063,1.55800956,1.68007489,1.40420775,1.28959342,1.782024,1.4022832,1.44897039,1.3326781,1.43343278,2.52346863,1.27146075,2.19593934,1.06748785,1.51685585
0.29,1.5610563,1.61735678,2.11464775,1.23701121,1.7317756,1.74467933,1.39552315,1.36926598,1.76679497,1.40422675,1.52544615,1.39848691,1.40239052,2.95016752,1.34595921,2.05983688,1.13192528,1.41651673
0.3,1.54639,1.68403967,2.27050415,1.24905722,1.89077228,2.02535759,1.38510009,1.49599906,1.95146266,1.4792163,1.62705009,1.6256007,1.28386121,3.20893118,1.29171724,1.88825967,1.12961818,1.29360908
0.32,1.50952389,1.71412966,2.19738977,1.33715035,1.67762417,2.16195911,1.47573737,1.63899316,1.9120138,1.40074645,1.9293207,2.01010546,1.39776113,2.88482354,1.29859047,1.61035216,1.25213452,1.34765322
0.34,1.47569444,1.68127656,2.1026392,1.34435374,1.55648101,2.22856053,1.77070789,1.37098706,1.49741965,1.30844847,2.04899445,2.21589167,1.44470969,2.42811565,1.53404944,1.35766313,1.22388338,1.5519598
0.35,1.45978793,1.66759599,2.10787626,1.31927876,1.47464387,2.26663902,1.85886333,1.2433507,1.52707738,1.2321322,2.23143979,2.08459402,1.50413162,2.30161158,1.6395577,1.26834953,1.21288427,1.5010688
0.36,1.44449385,1.63748428,2.07497789,1.29223293,1.35814808,2.21213305,1.82670312,1.20560635,1.54573438,1.29281,2.3129537,2.05106072,1.57968912,2.11808316,1.63669528,1.12666456,1.1980718,1.46042654
0.38,1.41558798,1.56151138,1.89553234,1.28634988,1.34267803,1.91740637,1.60904549,1.19355413,1.76857094,1.24184856,1.98949536,1.86153664,1.69233697,1.73719308,1.86360474,1.0400043,1.3581029,1.24578187
0.4,1.3887,1.47513639,1.81185488,1.20099429,1.44504747,1.65961286,1.2787936,1.16649581,2.21180114,1.20468913,1.58745134,1.47307236,1.73351189,1.45235799,1.8704605,1.09565238,1.30400498,1.16895798
0.42,1.37080952,1.48247383,1.96477491,1.1185651,1.49743222,1.63133973,1.1177577,1.28097861,2.77257388,1.26629555,1.49470806,1.29828809,1.75688485,1.38803157,1.73211655,1.00572658,1.14749284,1.36500736
0.44,1.35396615,1.50875961,2.03599769,1.1180541,1.4289269,1.8528809,1.12023038,1.30392264,2.89424754,1.53870675,1.44913489,1.09146716,1.78190903,1.51025775,1.58943422,1.07995374,1.10303125,1.37853142
0.45,1.34590376,1.48947273,2.0434556,1.08567518,1.30709708,1.89688522,1.0712608,1.29711333,2.91114474,1.61063686,1.45430778,1.00328614,1.72595006,1.53572862,1.48071045,1.1433637,1.00223328,1.41290023
0.46,1.33806502,1.47344919,2.03633683,1.06615589,1.28469679,1.85793887,1.00280068,1.33292372,2.91630169,1.69822326,1.47579666,0.99537882,1.64257247,1.48853003,1.38963386,1.18424355,0.95157864,1.40766958
0.48,1.32301577,1.49551693,2.00797506,1.11384396,1.24914421,1.78619906,1.06290813,1.38078805,2.77171593,1.89824548,1.62005087,0.9944428,1.66599643,1.40529309,1.43751859,1.22013908,1.0642866,1.38050874
0.5,1.30874,1.50170314,1.96560071,1.14728913,1.17427595,1.73181863,1.1031312,1.30347798,2.48449751,2.01880648,1.83220301,0.98561658,1.6775548,1.47685304,1.51548076,1.18932152,1.06570879,1.4650977
0.55,1.26645704,1.43574489,1.80659642,1.14102041,1.19547652,1.85713105,0.98002778,1.04161312,1.78089342,1.57767829,1.46138906,1.1133833,1.63879257,1.33148054,2.10752617,1.07696945,1.31575832,1.62230884
0.6,1.22904969,1.35597049,1.77633824,1.03508213,1.24271705,1.23076835,0.99255348,1.26768692,1.30871188,1.0152325,1.17855924,1.45122247,1.57736871,1.64036653,2.42352727,0.85058412,1.30081473,1.5034736
0.65,1.19561475,1.34938571,1.78839007,1.01814578,1.22675795,1.31432561,1.0928382,1.39681193,1.50461459,0.79799449,1.22098432,1.36677248,1.44775985,2.06381867,2.07362459,0.68528064,1.11805229,1.58176439
0.667,1.18502556,1.34588807,1.81280448,0.99923336,1.1248442,1.47266602,1.09282538,1.5369804,1.56803036,0.7749441,1.2100855,1.25043094,1.38800324,2.22137813,1.89739656,0.63511984,1.10778891,1.56193945
0.7,1.16547029,1.31093839,1.8555238,0.92618562,0.97742981,1.67242135,1.06928676,1.96316715,1.46414835,0.73044261,1.14399864,1.08396589,1.26108989,2.35141565,1.57092077,0.62273325,1.00183285,1.44028446
0.75,1.13809,1.18882684,1.64945101,0.85683616,1.03160494,1.3908039,0.87158018,1.83172562,1.2929311,0.63457445,1.18428632,0.95012695,1.11934166,1.92215335,1.0541583,0.59720835,1.07958002,1.68350069
0.8,1.12114592,1.09239705,1.43783558,0.82994977,1.01603327,1.0564253,0.85795279,1.4668923,0.93841472,0.65502824,1.34296379,1.07803247,1.17949709,1.52443266,0.93188557,0.56208843,1.06342721,1.62048485
0.85,1.05875659,1.02738107,1.32658736,0.79565952,0.93174028,0.88291154,1.06850051,1.36013799,0.72683612,0.62071207,1.17861687,1.21083443,1.13801376,1.32468505,1.00358979,0.5678146,0.9115548,1.45738712
0.9,0.97545143,0.97364993,1.23934185,0.76491743,0.73956739,0.7614077,1.08616831,1.27650022,0.7237438,0.64685536,1.22511599,1.25039624,1.06768252,1.1375061,0.98101204,0.56928556,0.94833206,1.21752575
0.95,0.90269273,0.88176306,1.13475238,0.68517688,0.62144144,0.64873565,0.99841918,1.12881957,0.59952246,0.62408388,1.18473251,1.25563564,0.89778303,0.8355442,0.87610611,0.6293736,0.94268113,1.1018044
1.0,0.83869,0.84663327,1.10431639,0.64907838,0.66127079,0.63271081,0.99735632,0.89044178,0.44036306,0.71333213,1.14684749,1.29705643,0.7937993,0.76867744,0.82899502,0.67457205,0.86268582,1.14475736
1.1,0.71974876,0.80337281,1.09397559,0.58996552,0.88988085,0.53172739,0.89037642,1.17688776,0.38942934,0.90287982,1.12261511,1.1285697,0.56446645,0.56222425,0.82948899,0.59992157,0.62269153,1.03606018
1.2,0.62595588,0.72285072,1.01412515,0.51523538,0.75802785,0.6093399,0.65940758,1.19541698,0.35941487,0.94243889,1.02016842,0.96673925,0.47542098,0.44981774,0.87357545,0.52141307,0.47473675,0.81399228
1.3,0.55050707,0.6460293,0.87193707,0.47865135,0.5116418,0.59577527,0.67289795,0.9889398,0.31834098,0.88398119,0.82265365,0.8237316,0.47865331,0.39549794,0.7766985,0.50787755,0.50636252,0.76135819
